{"type": "FeatureCollection", "features": [{"id": "0", "type": "Feature", "properties": {"uc": "107 UC"}, "geometry": {"type": "Polygon", "coordinates": [[[73.29515376600006, 33.53173977100005], [73.29145376600007, 33.52813977100004], [73.29295376600004, 33.52203977100004], [73.29275376600003, 33.519939771000054], [73.29145376600007, 33.51763977100006], [73.28455376600004, 33.51333977100006], [73.28125376600008, 33.50573977100004], [73.27785376600008, 33.50063977100007], [73.27695376600008, 33.49783977100003], [73.27705376600005, 33.495439771000065], [73.27915376600004, 33.48843977100006], [73.27795376600005, 33.48023977100007], [73.26565376600007, 33.48333977100003], [73.26175376600008, 33.48273977100007], [73.25815376600008, 33.48403977100003], [73.25525376600007, 33.486539771000025], [73.25275376600007, 33.48763977100003], [73.24915376600006, 33.470939771000076], [73.24965376600005, 33.46133977100004], [73.24305376600006, 33.45753977100003], [73.24125376600006, 33.45933977100003], [73.24435376600007, 33.46333977100005], [73.24385376600003, 33.46793977100003], [73.24085376600004, 33.47623977100005], [73.23945376600005, 33.48583977100003], [73.23615376600003, 33.485639771000024], [73.23325376600008, 33.49233977100005], [73.23675376600005, 33.49783977100003], [73.23925376600005, 33.49983977100004], [73.24095376600008, 33.499739771000066], [73.23955376600003, 33.49563977100007], [73.24055376600006, 33.49243977100008], [73.24285376600005, 33.49563977100007], [73.24265376600005, 33.49943977100003], [73.24335376600004, 33.50153977100007], [73.23955376600003, 33.50673977100007], [73.23725376600004, 33.51213977100008], [73.23465376600006, 33.51073977100003], [73.23035376600006, 33.51003977100004], [73.22545376600004, 33.51153977100006], [73.22415376600003, 33.51533977100007], [73.25105376600004, 33.54323977100006], [73.26615376600006, 33.55713977100004], [73.27945376600007, 33.57113977100005], [73.28225376600005, 33.573339771000065], [73.28735376600008, 33.56803977100003], [73.29035376600007, 33.56623977100003], [73.29125376600007, 33.56183977100005], [73.29325376600008, 33.560239771000056], [73.29535376600006, 33.55983977100004], [73.29585376600005, 33.556739771000025], [73.29245376600005, 33.549339771000064], [73.29145376600007, 33.545439771000076], [73.29205376600004, 33.539139771000066], [73.29515376600006, 33.53173977100005]]]}}, {"id": "1", "type": "Feature", "properties": {"uc": "AFANDI COLONY"}, "geometry": {"type": "Polygon", "coordinates": [[[73.05885376600008, 33.60883977100008], [73.05545376600008, 33.607339771000056], [73.05335376600004, 33.61253977100006], [73.05675376600004, 33.61343977100006], [73.05885376600008, 33.60883977100008]]]}}, {"id": "2", "type": "Feature", "properties": {"uc": "AMARPURA"}, "geometry": {"type": "Polygon", "coordinates": [[[73.07395376600005, 33.615539771000044], [73.07735376600004, 33.60403977100003], [73.07015376600003, 33.60313977100003], [73.06645376600005, 33.614739771000075], [73.07395376600005, 33.615539771000044]]]}}, {"id": "3", "type": "Feature", "properties": {"uc": "ASGHAR MALL SCHEME"}, "geometry": {"type": "Polygon", "coordinates": [[[73.05085376600005, 33.61773977100006], [73.04375376600007, 33.615539771000044], [73.04315376600005, 33.61803977100004], [73.04865376600003, 33.621839771000054], [73.05085376600005, 33.61773977100006]]]}}, {"id": "4", "type": "Feature", "properties": {"uc": "Adiala"}, "geometry": {"type": "Polygon", "coordinates": [[[73.04445376600006, 33.480039771000065], [73.05235376600007, 33.47533977100005], [73.06135376600008, 33.46483977100007], [73.05765376600004, 33.46243977100005], [73.05555376600006, 33.45873977100007], [73.05075376600007, 33.45873977100007], [73.04305376600007, 33.45723977100005], [73.03135376600005, 33.46483977100007], [73.02345376600005, 33.46913977100007], [73.02065376600007, 33.471739771000045], [73.01705376600006, 33.46783977100006], [73.01505376600005, 33.46473977100004], [73.01395376600004, 33.46163977100008], [73.00705376600007, 33.45243977100006], [72.99865376600007, 33.44563977100006], [72.99535376600005, 33.443539771000076], [72.98905376600004, 33.44173977100007], [72.98445376600006, 33.44103977100008], [72.97855376600006, 33.441539771000066], [72.97465376600007, 33.438639771000055], [72.97115376600004, 33.437239771000066], [72.96215376600003, 33.425239771000065], [72.96115376600005, 33.421739771000034], [72.96175376600007, 33.41683977100007], [72.96115376600005, 33.41423977100004], [72.96195376600008, 33.411239771000055], [72.96365376600005, 33.409839771000065], [72.96245376600007, 33.40143977100007], [72.95865376600005, 33.38743977100006], [72.95815376600007, 33.38303977100003], [72.95305376600004, 33.386139771000046], [72.94495376600008, 33.38693977100007], [72.93805376600005, 33.39033977100007], [72.93715376600005, 33.39263977100006], [72.93725376600008, 33.40303977100007], [72.93465376600005, 33.409739771000034], [72.93115376600008, 33.41283977100005], [72.92645376600007, 33.41473977100003], [72.91445376600007, 33.42683977100006], [72.91665376600008, 33.42933977100006], [72.91945376600006, 33.43103977100003], [72.92205376600003, 33.431739771000025], [72.92775376600008, 33.43183977100006], [72.93255376600007, 33.43333977100008], [72.93705376600008, 33.43363977100006], [72.94015376600004, 33.43503977100005], [72.93565376600003, 33.43743977100007], [72.93015376600005, 33.44223977100006], [72.92495376600004, 33.445739771000035], [72.92045376600004, 33.44703977100005], [72.91685376600003, 33.44943977100007], [72.91555376600007, 33.452639771000065], [72.91585376600005, 33.45593977100003], [72.91775376600003, 33.45923977100006], [72.91825376600008, 33.46243977100005], [72.92155376600005, 33.463739771000064], [72.92585376600005, 33.46673977100005], [72.93305376600006, 33.47303977100006], [72.94255376600006, 33.47833977100004], [72.94895376600005, 33.48863977100007], [72.95595376600005, 33.49173977100003], [72.96425376600007, 33.500839771000074], [72.97255376600003, 33.506239771000025], [72.97475376600005, 33.510839771000065], [72.97575376600008, 33.51763977100006], [72.98235376600007, 33.51973977100005], [72.98735376600007, 33.52263977100006], [72.99815376600003, 33.531439771000066], [72.99975376600008, 33.52463977100007], [73.00125376600005, 33.52193977100006], [73.01345376600005, 33.50583977100007], [73.01535376600003, 33.50203977100006], [73.01755376600005, 33.497439771000074], [73.01805376600004, 33.49133977100007], [73.01915376600004, 33.487739771000065], [73.03575376600008, 33.483139771000026], [73.03975376600005, 33.48013977100004], [73.04195376600006, 33.48063977100003], [73.04445376600006, 33.480039771000065]]]}}, {"id": "5", "type": "Feature", "properties": {"uc": "BAGGA SHEIKHAN"}, "geometry": {"type": "Polygon", "coordinates": [[[73.18955376600007, 33.48353977100004], [73.18695376600004, 33.47343977100007], [73.18695376600004, 33.46783977100006], [73.18565376600003, 33.46473977100004], [73.18705376600008, 33.46293977100004], [73.18975376600008, 33.46133977100004], [73.19655376600008, 33.45953977100004], [73.20595376600005, 33.463139771000044], [73.20685376600005, 33.46103977100006], [73.20625376600003, 33.45753977100003], [73.20495376600007, 33.454339771000036], [73.20275376600006, 33.45213977100008], [73.20205376600006, 33.449239771000066], [73.20535376600003, 33.44853977100007], [73.20825376600004, 33.44223977100006], [73.21215376600003, 33.441539771000066], [73.21335376600007, 33.438339771000074], [73.21295376600006, 33.43543977100006], [73.21615376600005, 33.42613977100007], [73.21275376600005, 33.42143977100005], [73.20965376600003, 33.41963977100005], [73.18915376600006, 33.41433977100007], [73.18995376600003, 33.40183977100003], [73.18575376600006, 33.39693977100006], [73.18405376600003, 33.39273977100004], [73.16975376600004, 33.39513977100006], [73.16725376600004, 33.39603977100006], [73.16215376600007, 33.40223977100004], [73.15985376600008, 33.40713977100006], [73.15815376600005, 33.408939771000064], [73.15715376600008, 33.41383977100003], [73.15405376600006, 33.416139771000076], [73.14795376600006, 33.41383977100003], [73.13365376600007, 33.413239771000065], [73.13395376600005, 33.41573977100006], [73.14005376600005, 33.420939771000064], [73.14145376600004, 33.428639771000064], [73.14685376600005, 33.43343977100005], [73.14395376600004, 33.43623977100003], [73.14555376600003, 33.43983977100004], [73.14415376600004, 33.444339771000045], [73.14065376600007, 33.44603977100007], [73.14195376600003, 33.448039771000026], [73.14765376600008, 33.45233977100003], [73.15365376600005, 33.45413977100003], [73.15745376600006, 33.45393977100008], [73.16295376600004, 33.45563977100005], [73.16385376600005, 33.458839771000044], [73.16315376600005, 33.46583977100005], [73.16015376600006, 33.46933977100008], [73.16115376600004, 33.47303977100006], [73.16475376600005, 33.47703977100008], [73.17615376600008, 33.48583977100003], [73.18275376600008, 33.486339771000075], [73.18655376600003, 33.48523977100007], [73.18955376600007, 33.48353977100004]]]}}, {"id": "6", "type": "Feature", "properties": {"uc": "BAJNIAL"}, "geometry": {"type": "Polygon", "coordinates": [[[72.88235376600005, 33.61373977100004], [72.91395376600008, 33.57293977100005], [72.95745376600007, 33.595339771000056], [72.96255376600004, 33.594439771000054], [72.96935376600004, 33.58633977100004], [72.97335376600006, 33.58513977100006], [72.97995376600005, 33.581939771000066], [72.98035376600006, 33.57603977100007], [72.97925376600006, 33.572839771000076], [72.97615376600004, 33.56963977100003], [72.96905376600006, 33.56673977100007], [72.95615376600006, 33.56623977100003], [72.95315376600007, 33.56323977100004], [72.95025376600006, 33.562139771000034], [72.95205376600006, 33.55763977100003], [72.95255376600005, 33.55343977100006], [72.95125376600004, 33.548239771000055], [72.94895376600005, 33.54743977100003], [72.94665376600005, 33.54913977100006], [72.93955376600007, 33.55133977100007], [72.93705376600008, 33.553039771000044], [72.93445376600005, 33.55633977100007], [72.93225376600003, 33.553339771000026], [72.92845376600008, 33.551639771000055], [72.91235376600008, 33.53463977100006], [72.90525376600004, 33.52963977100006], [72.90355376600007, 33.53103977100005], [72.90175376600007, 33.53403977100004], [72.89315376600007, 33.532739771000024], [72.88285376600004, 33.52723977100004], [72.87865376600007, 33.52673977100005], [72.87665376600006, 33.528239771000074], [72.87125376600005, 33.52833977100005], [72.86795376600008, 33.52953977100003], [72.86355376600005, 33.52963977100006], [72.85665376600008, 33.53213977100006], [72.85365376600004, 33.533639771000026], [72.85645376600007, 33.53873977100005], [72.85635376600004, 33.54313977100003], [72.85515376600006, 33.54753977100006], [72.85265376600006, 33.55083977100003], [72.84885376600005, 33.55373977100004], [72.84475376600005, 33.55983977100004], [72.83995376600006, 33.56053977100004], [72.83575376600004, 33.563339771000074], [72.82975376600007, 33.56393977100004], [72.82675376600008, 33.563039771000035], [72.82425376600008, 33.563639771000055], [72.82145376600005, 33.566439771000034], [72.81845376600006, 33.56693977100008], [72.81635376600008, 33.568539771000076], [72.82095376600006, 33.57753977100003], [72.82115376600007, 33.58083977100006], [72.81805376600005, 33.586739771000055], [72.82185376600006, 33.593039771000065], [72.82255376600006, 33.595939771000076], [72.82255376600006, 33.600239771000076], [72.82555376600004, 33.59973977100003], [72.83325376600004, 33.600739771000065], [72.83865376600005, 33.602939771000024], [72.84135376600005, 33.605039771000065], [72.84315376600006, 33.60753977100006], [72.84715376600008, 33.60973977100008], [72.85275376600003, 33.611339771000075], [72.85595376600008, 33.61363977100007], [72.86425376600005, 33.61463977100004], [72.88235376600005, 33.61373977100004]]]}}, {"id": "7", "type": "Feature", "properties": {"uc": "BANDA"}, "geometry": {"type": "Polygon", "coordinates": [[[73.11495376600004, 33.36633977100007], [73.11945376600005, 33.36463977100004], [73.12495376600003, 33.36483977100005], [73.12695376600004, 33.35943977100004], [73.12355376600004, 33.34843977100007], [73.11565376600004, 33.34703977100003], [73.11675376600004, 33.33483977100008], [73.11825376600007, 33.33093977100003], [73.10655376600005, 33.33033977100007], [73.10355376600006, 33.32783977100007], [73.11065376600004, 33.32153977100006], [73.11375376600006, 33.31233977100004], [73.11265376600005, 33.30723977100007], [73.10975376600004, 33.308239771000046], [73.10765376600006, 33.310739771000044], [73.10415376600008, 33.312139771000034], [73.08775376600005, 33.32373977100008], [73.08265376600008, 33.32583977100006], [73.06435376600007, 33.32863977100004], [73.05985376600006, 33.327639771000065], [73.05145376600007, 33.32373977100008], [73.03645376600008, 33.31823977100004], [73.03265376600007, 33.31573977100004], [73.02845376600004, 33.317339771000036], [73.02855376600007, 33.321939771000075], [73.02415376600004, 33.32113977100005], [73.01555376600004, 33.32453977100005], [73.01265376600003, 33.32453977100005], [72.99915376600006, 33.30913977100005], [72.99435376600007, 33.32083977100007], [72.99165376600007, 33.325539771000024], [72.98975376600004, 33.33123977100007], [72.98475376600004, 33.33783977100006], [72.98095376600008, 33.34653977100004], [72.97725376600005, 33.35313977100003], [72.98125376600007, 33.35513977100004], [72.98485376600007, 33.35833977100003], [72.99185376600008, 33.36193977100004], [72.99415376600007, 33.36403977100008], [72.99965376600005, 33.36573977100005], [73.00135376600008, 33.36883977100007], [72.99945376600004, 33.37093977100005], [72.99865376600007, 33.374139771000046], [73.00365376600007, 33.37713977100003], [73.00795376600007, 33.37863977100005], [73.01215376600004, 33.38173977100007], [73.01665376600005, 33.38333977100007], [73.02355376600008, 33.387239771000054], [73.03535376600007, 33.390139771000065], [73.04515376600006, 33.38943977100007], [73.05555376600006, 33.39083977100006], [73.05845376600007, 33.39503977100003], [73.05935376600007, 33.39793977100004], [73.06085376600004, 33.400139771000056], [73.06335376600003, 33.40253977100008], [73.06705376600007, 33.402939771000035], [73.06625376600005, 33.39933977100003], [73.06125376600005, 33.39263977100006], [73.06285376600005, 33.382339771000034], [73.06535376600004, 33.38083977100007], [73.06495376600003, 33.37743977100007], [73.06715376600005, 33.37403977100007], [73.06285376600005, 33.37253977100005], [73.06095376600007, 33.373339771000076], [73.05845376600007, 33.373339771000076], [73.05795376600008, 33.369039771000075], [73.06075376600006, 33.36333977100003], [73.06305376600005, 33.361539771000025], [73.06505376600006, 33.35883977100008], [73.06895376600005, 33.357839771000044], [73.06855376600004, 33.35343977100007], [73.06935376600006, 33.34913977100007], [73.07175376600003, 33.34843977100007], [73.07875376600003, 33.35433977100007], [73.08315376600007, 33.35613977100007], [73.08495376600007, 33.35773977100007], [73.08125376600003, 33.360139771000036], [73.09035376600008, 33.37093977100005], [73.09395376600008, 33.368139771000074], [73.09695376600007, 33.36773977100006], [73.09715376600008, 33.362739771000065], [73.09595376600004, 33.36053977100005], [73.10485376600008, 33.360139771000036], [73.10855376600006, 33.36083977100003], [73.11205376600003, 33.36233977100005], [73.11435376600008, 33.36423977100003], [73.11495376600004, 33.36633977100007]]]}}, {"id": "8", "type": "Feature", "properties": {"uc": "BANGISH COLONY"}, "geometry": {"type": "Polygon", "coordinates": [[[73.04685376600008, 33.591039771000055], [73.04975376600004, 33.58283977100007], [73.04655376600005, 33.579939771000056], [73.04525376600003, 33.58263977100006], [73.04475376600004, 33.586139771000035], [73.04255376600008, 33.588239771000076], [73.04385376600004, 33.59343977100008], [73.04685376600008, 33.591039771000055]]]}}, {"id": "9", "type": "Feature", "properties": {"uc": "BANNI"}, "geometry": {"type": "Polygon", "coordinates": [[[73.10925376600005, 33.60283977100005], [73.10835376600005, 33.59483977100007], [73.10355376600006, 33.59213977100006], [73.10165376600008, 33.58793977100004], [73.09395376600008, 33.60113977100008], [73.10165376600008, 33.60393977100006], [73.10815376600004, 33.607239771000025], [73.10925376600005, 33.60283977100005]]]}}, {"id": "10", "type": "Feature", "properties": {"uc": "BASALI"}, "geometry": {"type": "Polygon", "coordinates": [[[73.14045376600006, 33.425239771000065], [73.14005376600005, 33.420939771000064], [73.13395376600005, 33.41573977100006], [73.13365376600007, 33.413239771000065], [73.14795376600006, 33.41383977100003], [73.15405376600006, 33.416139771000076], [73.15715376600008, 33.41383977100003], [73.15815376600005, 33.408939771000064], [73.15985376600008, 33.40713977100006], [73.16215376600007, 33.40223977100004], [73.16725376600004, 33.39603977100006], [73.16975376600004, 33.39513977100006], [73.18405376600003, 33.39273977100004], [73.18815376600008, 33.38403977100006], [73.19015376600004, 33.37773977100005], [73.18095376600007, 33.372139771000036], [73.17765376600005, 33.368339771000024], [73.17245376600005, 33.367839771000035], [73.17015376600006, 33.36233977100005], [73.16585376600005, 33.36023977100007], [73.16295376600004, 33.35533977100005], [73.15915376600003, 33.351539771000034], [73.15835376600006, 33.34803977100006], [73.13625376600004, 33.34603977100005], [73.13365376600007, 33.32573977100003], [73.11825376600007, 33.33093977100003], [73.11675376600004, 33.33483977100008], [73.11565376600004, 33.34703977100003], [73.12355376600004, 33.34843977100007], [73.12695376600004, 33.35943977100004], [73.12495376600003, 33.36483977100005], [73.11945376600005, 33.36463977100004], [73.11495376600004, 33.36633977100007], [73.11005376600008, 33.366939771000034], [73.10735376600007, 33.369239771000025], [73.10715376600007, 33.37253977100005], [73.10505376600008, 33.379539771000054], [73.10505376600008, 33.38273977100005], [73.10595376600008, 33.38543977100005], [73.10495376600005, 33.38793977100005], [73.10235376600008, 33.38903977100006], [73.09085376600007, 33.38543977100005], [73.08455376600006, 33.37943977100008], [73.08305376600003, 33.38163977100004], [73.08065376600007, 33.38303977100003], [73.07975376600007, 33.39273977100004], [73.08155376600007, 33.39593977100003], [73.08495376600007, 33.39823977100008], [73.08515376600008, 33.40053977100007], [73.08395376600004, 33.404339771000025], [73.08205376600006, 33.406939771000054], [73.07745376600008, 33.41103977100005], [73.08025376600006, 33.415239771000074], [73.08665376600004, 33.40943977100005], [73.08945376600008, 33.40793977100003], [73.09265376600007, 33.40813977100004], [73.09915376600003, 33.41093977100007], [73.10185376600003, 33.41333977100004], [73.10065376600005, 33.421239771000046], [73.09965376600007, 33.42333977100003], [73.09685376600004, 33.42493977100003], [73.09585376600006, 33.427539771000056], [73.09645376600008, 33.43123977100004], [73.10105376600006, 33.430939771000055], [73.10525376600003, 33.433739771000035], [73.11205376600003, 33.43333977100008], [73.11475376600004, 33.43253977100005], [73.11665376600007, 33.430939771000055], [73.11485376600007, 33.42273977100007], [73.11815376600003, 33.42083977100003], [73.12085376600004, 33.420639771000026], [73.12445376600004, 33.42243977100003], [73.13415376600005, 33.42253977100006], [73.14045376600006, 33.425239771000065]]]}}, {"id": "11", "type": "Feature", "properties": {"uc": "CHAH SULTAN"}, "geometry": {"type": "Polygon", "coordinates": [[[73.08065376600007, 33.611539771000025], [73.08735376600004, 33.59883977100003], [73.08015376600008, 33.596739771000045], [73.07875376600003, 33.60253977100007], [73.07735376600004, 33.60403977100003], [73.07495376600008, 33.61093977100006], [73.08065376600007, 33.611539771000025]]]}}, {"id": "12", "type": "Feature", "properties": {"uc": "CHAHAN"}, "geometry": {"type": "MultiPolygon", "coordinates": [[[[72.91775376600003, 33.45923977100006], [72.91585376600005, 33.45593977100003], [72.91555376600007, 33.452639771000065], [72.91685376600003, 33.44943977100007], [72.92045376600004, 33.44703977100005], [72.92495376600004, 33.445739771000035], [72.93015376600005, 33.44223977100006], [72.93565376600003, 33.43743977100007], [72.94015376600004, 33.43503977100005], [72.93705376600008, 33.43363977100006], [72.93255376600007, 33.43333977100008], [72.92775376600008, 33.43183977100006], [72.92205376600003, 33.431739771000025], [72.91945376600006, 33.43103977100003], [72.91665376600008, 33.42933977100006], [72.91445376600007, 33.42683977100006], [72.90985376600008, 33.426639771000055], [72.90505376600004, 33.42493977100003], [72.90325376600003, 33.42253977100006], [72.90535376600008, 33.41933977100007], [72.91195376600007, 33.418939771000055], [72.91435376600003, 33.41743977100003], [72.91595376600003, 33.41533977100005], [72.92265376600005, 33.41073977100007], [72.92835376600004, 33.40423977100005], [72.92835376600004, 33.401239771000064], [72.91825376600008, 33.394439771000066], [72.91935376600003, 33.390939771000035], [72.91835376600005, 33.38653977100006], [72.91875376600007, 33.38393977100003], [72.92155376600005, 33.38073977100004], [72.93215376600006, 33.37633977100006], [72.92955376600008, 33.37483977100004], [72.92125376600006, 33.37593977100005], [72.91175376600006, 33.37943977100008], [72.90785376600007, 33.38173977100007], [72.90755376600004, 33.38513977100007], [72.91015376600006, 33.38683977100004], [72.90775376600004, 33.39833977100005], [72.90025376600005, 33.39793977100004], [72.89815376600006, 33.39173977100006], [72.88725376600007, 33.38993977100006], [72.88355376600003, 33.39053977100008], [72.87755376600006, 33.39023977100004], [72.87555376600005, 33.38393977100003], [72.87385376600008, 33.381839771000045], [72.87125376600005, 33.38143977100003], [72.86365376600008, 33.38333977100007], [72.86075376600007, 33.383239771000035], [72.85835376600005, 33.38733977100003], [72.85445376600006, 33.39003977100003], [72.84985376600008, 33.388639771000044], [72.83815376600006, 33.38733977100003], [72.83115376600006, 33.38333977100007], [72.82885376600007, 33.38653977100006], [72.82585376600008, 33.388939771000025], [72.82285376600004, 33.389539771000045], [72.81795376600007, 33.38643977100003], [72.80955376600008, 33.385339771000076], [72.80285376600006, 33.392939771000044], [72.80115376600008, 33.39593977100003], [72.79815376600004, 33.405839771000046], [72.79225376600004, 33.41673977100004], [72.79695376600006, 33.42163977100006], [72.79955376600003, 33.43043977100007], [72.79845376600008, 33.43343977100005], [72.79705376600003, 33.436339771000064], [72.78845376600003, 33.44363977100005], [72.78655376600005, 33.447139771000025], [72.78285376600007, 33.450039771000036], [72.79545376600004, 33.45283977100007], [72.79955376600003, 33.45593977100003], [72.80475376600003, 33.456939771000066], [72.80905376600003, 33.45863977100004], [72.81275376600007, 33.46153977100005], [72.81705376600007, 33.463239771000076], [72.82405376600008, 33.46433977100003], [72.82995376600007, 33.46293977100004], [72.83325376600004, 33.463239771000076], [72.85455376600004, 33.47163977100007], [72.86745376600004, 33.47593977100007], [72.87395376600006, 33.47563977100003], [72.88375376600004, 33.47303977100006], [72.89985376600004, 33.47643977100006], [72.90965376600008, 33.48153977100003], [72.91565376600005, 33.483739771000046], [72.91845376600008, 33.48413977100006], [72.91885376600004, 33.481439771000055], [72.91625376600007, 33.47893977100006], [72.91425376600006, 33.475239771000076], [72.91705376600004, 33.47203977100003], [72.91665376600008, 33.46703977100003], [72.91825376600008, 33.46243977100005], [72.91775376600003, 33.45923977100006]]], [[[72.92365376600003, 33.48403977100003], [72.91845376600008, 33.48413977100006], [72.92545376600003, 33.48803977100005], [72.92205376600003, 33.48873977100004], [72.91825376600008, 33.49523977100006], [72.91645376600007, 33.49693977100003], [72.91455376600004, 33.49663977100005], [72.91255376600003, 33.497739771000056], [72.90945376600007, 33.50913977100004], [72.90715376600008, 33.51203977100005], [72.90505376600004, 33.51323977100003], [72.90245376600006, 33.518539771000064], [72.90005376600004, 33.51843977100003], [72.89395376600004, 33.520839771000055], [72.89115376600006, 33.52313977100005], [72.88765376600003, 33.52393977100007], [72.88285376600004, 33.52723977100004], [72.89315376600007, 33.532739771000024], [72.90175376600007, 33.53403977100004], [72.90355376600007, 33.53103977100005], [72.90525376600004, 33.52963977100006], [72.90645376600008, 33.52383977100004], [72.90985376600008, 33.520239771000035], [72.91205376600004, 33.51673977100006], [72.91975376600004, 33.513939771000025], [72.92475376600004, 33.513139771000056], [72.92725376600004, 33.509639771000025], [72.92485376600007, 33.505139771000074], [72.92565376600004, 33.49643977100004], [72.92875376600006, 33.490839771000026], [72.92845376600008, 33.48793977100007], [72.92955376600008, 33.48643977100005], [72.92365376600003, 33.48403977100003]]]]}}, {"id": "13", "type": "Feature", "properties": {"uc": "CHAK BELI KHAN"}, "geometry": {"type": "Polygon", "coordinates": [[[72.96345376600004, 33.28443977100005], [72.95695376600008, 33.279339771000025], [72.95485376600004, 33.27583977100005], [72.95365376600006, 33.270739771000024], [72.95385376600007, 33.266539771000055], [72.95085376600008, 33.25793977100005], [72.95265376600008, 33.25333977100007], [72.95695376600008, 33.24813977100007], [72.95755376600005, 33.24293977100007], [72.95665376600004, 33.24023977100006], [72.95275376600006, 33.234839771000054], [72.95825376600004, 33.23033977100005], [72.96175376600007, 33.22613977100008], [72.96905376600006, 33.22493977100004], [72.97465376600007, 33.22483977100006], [72.97815376600005, 33.22383977100003], [72.97895376600007, 33.21843977100008], [72.97835376600005, 33.21353977100006], [72.96545376600005, 33.21013977100006], [72.96655376600006, 33.20503977100003], [72.96975376600005, 33.200039771000036], [72.97295376600005, 33.19683977100004], [72.96615376600005, 33.19173977100007], [72.96085376600007, 33.19053977100003], [72.95075376600005, 33.186639771000046], [72.95205376600006, 33.18113977100006], [72.95195376600003, 33.162739771000076], [72.95125376600004, 33.15673977100005], [72.94405376600008, 33.15133977100004], [72.93025376600008, 33.15103977100006], [72.92865376600008, 33.159239771000045], [72.92605376600005, 33.165239771000074], [72.92265376600005, 33.16903977100003], [72.91655376600005, 33.16933977100007], [72.91495376600005, 33.17393977100005], [72.92065376600004, 33.192339771000036], [72.92065376600004, 33.19743977100006], [72.91275376600004, 33.19983977100003], [72.90985376600008, 33.19793977100005], [72.90575376600003, 33.19643977100003], [72.90315376600006, 33.20703977100004], [72.90095376600004, 33.209739771000045], [72.90065376600006, 33.213139771000044], [72.90155376600006, 33.21733977100007], [72.89975376600006, 33.224339771000075], [72.90275376600005, 33.22533977100005], [72.90695376600007, 33.22333977100004], [72.90975376600005, 33.220839771000044], [72.91085376600006, 33.217739771000026], [72.91505376600003, 33.21643977100007], [72.92065376600004, 33.21713977100006], [72.91625376600007, 33.22013977100005], [72.91205376600004, 33.22563977100003], [72.90615376600005, 33.23033977100005], [72.90265376600007, 33.23043977100008], [72.89995376600007, 33.23243977100003], [72.89675376600007, 33.23363977100007], [72.88965376600004, 33.232939771000076], [72.88655376600008, 33.235439771000074], [72.88065376600008, 33.24673977100008], [72.88445376600004, 33.24783977100003], [72.88835376600008, 33.25033977100003], [72.89395376600004, 33.251939771000025], [72.89585376600007, 33.25473977100006], [72.89615376600005, 33.26603977100007], [72.89545376600006, 33.274239771000055], [72.89025376600006, 33.28063977100004], [72.88975376600007, 33.28613977100002], [72.89065376600007, 33.29083977100004], [72.89315376600007, 33.292539771000065], [72.89465376600003, 33.29513977100004], [72.89435376600005, 33.30093977100006], [72.89195376600003, 33.303939771000046], [72.89135376600007, 33.30693977100003], [72.89405376600007, 33.31093977100005], [72.90245376600006, 33.312739771000054], [72.90605376600007, 33.31283977100003], [72.91285376600007, 33.31543977100006], [72.91985376600007, 33.31633977100006], [72.92465376600006, 33.31623977100003], [72.92865376600008, 33.31383977100006], [72.93355376600005, 33.30773977100006], [72.93445376600005, 33.30403977100008], [72.93085376600004, 33.29293977100008], [72.93475376600003, 33.28943977100005], [72.93845376600007, 33.28843977100007], [72.94605376600003, 33.28813977100003], [72.96345376600004, 33.28443977100005]]]}}, {"id": "14", "type": "Feature", "properties": {"uc": "CHAK JALAL DIN"}, "geometry": {"type": "Polygon", "coordinates": [[[73.03225376600005, 33.59853977100005], [73.03075376600003, 33.595939771000076], [73.03015376600007, 33.59263977100005], [73.01805376600004, 33.58713977100007], [73.01315376600007, 33.58573977100008], [73.00445376600004, 33.581939771000066], [72.99785376600005, 33.57573977100003], [72.99475376600003, 33.57863977100004], [72.99575376600006, 33.583339771000055], [72.99605376600005, 33.59033977100006], [72.99435376600007, 33.59283977100006], [72.99835376600004, 33.59433977100008], [73.00875376600004, 33.59353977100005], [73.01325376600005, 33.597239771000034], [73.01995376600007, 33.60093977100007], [73.02175376600007, 33.602939771000024], [73.03255376600004, 33.60343977100007], [73.03195376600007, 33.601539771000034], [73.03225376600005, 33.59853977100005]]]}}, {"id": "15", "type": "Feature", "properties": {"uc": "CHAMAN ZAR COLONY"}, "geometry": {"type": "Polygon", "coordinates": [[[73.15135376600006, 33.58253977100003], [73.14755376600004, 33.580439771000044], [73.14315376600007, 33.58483977100008], [73.13725376600007, 33.593939771000066], [73.14165376600005, 33.59513977100005], [73.15135376600006, 33.58253977100003]]]}}, {"id": "16", "type": "Feature", "properties": {"uc": "CITY-46"}, "geometry": {"type": "Polygon", "coordinates": [[[73.15135376600006, 33.58253977100003], [73.15455376600005, 33.57833977100006], [73.14305376600004, 33.57203977100005], [73.13715376600004, 33.582439771000054], [73.14315376600007, 33.58483977100008], [73.14755376600004, 33.580439771000044], [73.15135376600006, 33.58253977100003]]]}}, {"id": "17", "type": "Feature", "properties": {"uc": "Chakri"}, "geometry": {"type": "Polygon", "coordinates": [[[72.79745376600005, 33.308239771000046], [72.80645376600006, 33.29783977100004], [72.80695376600005, 33.289139771000066], [72.80855376600005, 33.28453977100003], [72.80945376600005, 33.277639771000054], [72.80415376600007, 33.275139771000056], [72.79555376600007, 33.272239771000045], [72.78075376600003, 33.26323977100003], [72.77545376600006, 33.26093977100004], [72.77485376600004, 33.25853977100007], [72.76755376600005, 33.25303977100003], [72.76515376600008, 33.252839771000026], [72.75835376600008, 33.25383977100006], [72.75455376600007, 33.255139771000074], [72.75345376600006, 33.250839771000074], [72.75355376600004, 33.24693977100003], [72.74635376600008, 33.24753977100005], [72.73785376600006, 33.25303977100003], [72.72685376600003, 33.246839771000054], [72.71905376600006, 33.24373977100004], [72.71465376600008, 33.23953977100007], [72.70545376600006, 33.228639771000076], [72.70465376600004, 33.224339771000075], [72.70685376600005, 33.21333977100005], [72.70135376600007, 33.212639771000056], [72.69545376600007, 33.20943977100006], [72.68935376600007, 33.209139771000025], [72.68175376600004, 33.21243977100005], [72.67325376600007, 33.207739771000035], [72.66785376600006, 33.20843977100003], [72.66205376600004, 33.212539771000024], [72.65695376600007, 33.213239771000076], [72.65255376600004, 33.20873977100007], [72.65085376600007, 33.20473977100005], [72.64675376600007, 33.200339771000074], [72.63835376600008, 33.19553977100003], [72.63135376600007, 33.19423977100007], [72.62985376600005, 33.21103977100006], [72.63945376600003, 33.22333977100004], [72.64065376600007, 33.22633977100003], [72.64135376600007, 33.234339771000066], [72.64565376600007, 33.24593977100005], [72.64925376600007, 33.250539771000035], [72.65325376600003, 33.257439771000065], [72.65825376600003, 33.26273977100004], [72.66335376600006, 33.25713977100003], [72.66465376600007, 33.25363977100005], [72.66685376600003, 33.25103977100002], [72.67095376600008, 33.248539771000026], [72.67395376600007, 33.24503977100005], [72.68455376600008, 33.23823977100005], [72.69725376600007, 33.23753977100006], [72.69645376600005, 33.247739771000056], [72.69785376600004, 33.25553977100003], [72.70585376600008, 33.26343977100004], [72.71955376600005, 33.27243977100005], [72.72125376600007, 33.27493977100005], [72.72235376600008, 33.282739771000024], [72.72205376600004, 33.28753977100007], [72.72885376600004, 33.290539771000056], [72.73165376600008, 33.293939771000055], [72.74645376600006, 33.30473977100007], [72.75445376600004, 33.31313977100007], [72.75555376600005, 33.31713977100003], [72.76065376600008, 33.31493977100007], [72.76955376600006, 33.30603977100003], [72.77105376600008, 33.302239771000075], [72.77085376600007, 33.298139771000024], [72.77945376600007, 33.29723977100008], [72.78765376600006, 33.29833977100003], [72.79745376600005, 33.308239771000046]]]}}, {"id": "18", "type": "Feature", "properties": {"uc": "Chauntra"}, "geometry": {"type": "Polygon", "coordinates": [[[72.95815376600007, 33.38303977100003], [72.95895376600004, 33.37973977100006], [72.95855376600008, 33.37023977100006], [72.95915376600004, 33.366439771000046], [72.96125376600008, 33.36363977100007], [72.96515376600007, 33.36253977100006], [72.96765376600007, 33.36003977100006], [72.96995376600006, 33.35973977100008], [72.97725376600005, 33.35313977100003], [72.98095376600008, 33.34653977100004], [72.98475376600004, 33.33783977100006], [72.98975376600004, 33.33123977100007], [72.99165376600007, 33.325539771000024], [72.99435376600007, 33.32083977100007], [72.99915376600006, 33.30913977100005], [72.99175376600004, 33.30523977100006], [72.98495376600005, 33.302539771000056], [72.98175376600005, 33.299339771000064], [72.97935376600003, 33.29513977100004], [72.97435376600004, 33.29343977100007], [72.96875376600008, 33.290539771000056], [72.96345376600004, 33.28443977100005], [72.94605376600003, 33.28813977100003], [72.93845376600007, 33.28843977100007], [72.93475376600003, 33.28943977100005], [72.93085376600004, 33.29293977100008], [72.93445376600005, 33.30403977100008], [72.93355376600005, 33.30773977100006], [72.92865376600008, 33.31383977100006], [72.92465376600006, 33.31623977100003], [72.91985376600007, 33.31633977100006], [72.91285376600007, 33.31543977100006], [72.90915376600003, 33.31883977100006], [72.90245376600006, 33.32713977100008], [72.89555376600003, 33.329339771000036], [72.89175376600008, 33.32943977100007], [72.88775376600006, 33.32823977100003], [72.87895376600005, 33.33033977100007], [72.87965376600005, 33.339539771000034], [72.87715376600005, 33.351039771000046], [72.87765376600004, 33.353839771000025], [72.88375376600004, 33.36523977100006], [72.88485376600005, 33.368439771000055], [72.88745376600008, 33.370439771000065], [72.88975376600007, 33.374139771000046], [72.89345376600005, 33.37513977100008], [72.89555376600003, 33.377839771000026], [72.89555376600003, 33.38303977100003], [72.90025376600005, 33.39793977100004], [72.90775376600004, 33.39833977100005], [72.91015376600006, 33.38683977100004], [72.90755376600004, 33.38513977100007], [72.90785376600007, 33.38173977100007], [72.91175376600006, 33.37943977100008], [72.92125376600006, 33.37593977100005], [72.92955376600008, 33.37483977100004], [72.93215376600006, 33.37633977100006], [72.92155376600005, 33.38073977100004], [72.91875376600007, 33.38393977100003], [72.91835376600005, 33.38653977100006], [72.91935376600003, 33.390939771000035], [72.91825376600008, 33.394439771000066], [72.92835376600004, 33.401239771000064], [72.92835376600004, 33.40423977100005], [72.92265376600005, 33.41073977100007], [72.91595376600003, 33.41533977100005], [72.91435376600003, 33.41743977100003], [72.91195376600007, 33.418939771000055], [72.90535376600008, 33.41933977100007], [72.90325376600003, 33.42253977100006], [72.90505376600004, 33.42493977100003], [72.90985376600008, 33.426639771000055], [72.91445376600007, 33.42683977100006], [72.92645376600007, 33.41473977100003], [72.93115376600008, 33.41283977100005], [72.93465376600005, 33.409739771000034], [72.93725376600008, 33.40303977100007], [72.93715376600005, 33.39263977100006], [72.93805376600005, 33.39033977100007], [72.94495376600008, 33.38693977100007], [72.95305376600004, 33.386139771000046], [72.95815376600007, 33.38303977100003]]]}}, {"id": "19", "type": "Feature", "properties": {"uc": "Chhappar"}, "geometry": {"type": "Polygon", "coordinates": [[[73.05555376600006, 33.45873977100007], [73.06125376600005, 33.45533977100007], [73.06395376600005, 33.45273977100004], [73.06555376600005, 33.44983977100003], [73.06615376600007, 33.44683977100004], [73.07435376600006, 33.439439771000025], [73.08445376600008, 33.44643977100003], [73.09425376600007, 33.443439771000044], [73.09275376600004, 33.437239771000066], [73.09335376600006, 33.43423977100008], [73.09645376600008, 33.43123977100004], [73.09585376600006, 33.427539771000056], [73.09685376600004, 33.42493977100003], [73.09965376600007, 33.42333977100003], [73.10065376600005, 33.421239771000046], [73.10185376600003, 33.41333977100004], [73.09915376600003, 33.41093977100007], [73.09585376600006, 33.40943977100005], [73.09265376600007, 33.40813977100004], [73.08945376600008, 33.40793977100003], [73.08665376600004, 33.40943977100005], [73.08025376600006, 33.415239771000074], [73.07745376600008, 33.41103977100005], [73.08205376600006, 33.406939771000054], [73.08395376600004, 33.404339771000025], [73.08515376600008, 33.40053977100007], [73.08495376600007, 33.39823977100008], [73.08155376600007, 33.39593977100003], [73.07975376600007, 33.39273977100004], [73.08065376600007, 33.38303977100003], [73.08305376600003, 33.38163977100004], [73.08455376600006, 33.37943977100008], [73.09085376600007, 33.38543977100005], [73.10235376600008, 33.38903977100006], [73.10495376600005, 33.38793977100005], [73.10595376600008, 33.38543977100005], [73.10505376600008, 33.38273977100005], [73.10505376600008, 33.379539771000054], [73.10715376600007, 33.37253977100005], [73.10735376600007, 33.369239771000025], [73.11005376600008, 33.366939771000034], [73.11495376600004, 33.36633977100007], [73.11435376600008, 33.36423977100003], [73.11205376600003, 33.36233977100005], [73.10855376600006, 33.36083977100003], [73.10485376600008, 33.360139771000036], [73.09595376600004, 33.36053977100005], [73.09715376600008, 33.362739771000065], [73.09695376600007, 33.36773977100006], [73.09395376600008, 33.368139771000074], [73.09035376600008, 33.37093977100005], [73.08125376600003, 33.360139771000036], [73.08495376600007, 33.35773977100007], [73.08315376600007, 33.35613977100007], [73.07875376600003, 33.35433977100007], [73.07175376600003, 33.34843977100007], [73.06935376600006, 33.34913977100007], [73.06855376600004, 33.35343977100007], [73.06895376600005, 33.357839771000044], [73.06505376600006, 33.35883977100008], [73.06305376600005, 33.361539771000025], [73.06075376600006, 33.36333977100003], [73.05795376600008, 33.369039771000075], [73.05845376600007, 33.373339771000076], [73.06095376600007, 33.373339771000076], [73.06285376600005, 33.37253977100005], [73.06715376600005, 33.37403977100007], [73.06495376600003, 33.37743977100007], [73.06535376600004, 33.38083977100007], [73.06285376600005, 33.382339771000034], [73.06125376600005, 33.39263977100006], [73.06625376600005, 33.39933977100003], [73.06705376600007, 33.402939771000035], [73.06335376600003, 33.40253977100008], [73.06085376600004, 33.400139771000056], [73.05935376600007, 33.39793977100004], [73.05845376600007, 33.39503977100003], [73.05555376600006, 33.39083977100006], [73.04515376600006, 33.38943977100007], [73.03535376600007, 33.390139771000065], [73.02355376600008, 33.387239771000054], [73.01665376600005, 33.38333977100007], [73.01215376600004, 33.38173977100007], [73.00795376600007, 33.37863977100005], [73.00365376600007, 33.37713977100003], [72.99865376600007, 33.374139771000046], [72.99945376600004, 33.37093977100005], [73.00135376600008, 33.36883977100007], [72.99965376600005, 33.36573977100005], [72.99415376600007, 33.36403977100008], [72.99185376600008, 33.36193977100004], [72.98485376600007, 33.35833977100003], [72.98125376600007, 33.35513977100004], [72.97725376600005, 33.35313977100003], [72.96995376600006, 33.35973977100008], [72.96765376600007, 33.36003977100006], [72.96515376600007, 33.36253977100006], [72.96125376600008, 33.36363977100007], [72.95915376600004, 33.366439771000046], [72.95855376600008, 33.37023977100006], [72.95895376600004, 33.37973977100006], [72.95815376600007, 33.38303977100003], [72.95865376600005, 33.38743977100006], [72.96245376600007, 33.40143977100007], [72.96365376600005, 33.409839771000065], [72.96195376600008, 33.411239771000055], [72.96115376600005, 33.41423977100004], [72.96175376600007, 33.41683977100007], [72.96115376600005, 33.421739771000034], [72.96215376600003, 33.425239771000065], [72.97115376600004, 33.437239771000066], [72.97465376600007, 33.438639771000055], [72.97855376600006, 33.441539771000066], [72.98445376600006, 33.44103977100008], [72.98905376600004, 33.44173977100007], [72.99535376600005, 33.443539771000076], [72.99865376600007, 33.44563977100006], [73.00705376600007, 33.45243977100006], [73.01395376600004, 33.46163977100008], [73.01505376600005, 33.46473977100004], [73.01705376600006, 33.46783977100006], [73.02065376600007, 33.471739771000045], [73.02345376600005, 33.46913977100007], [73.03135376600005, 33.46483977100007], [73.04305376600007, 33.45723977100005], [73.05075376600007, 33.45873977100007], [73.05555376600006, 33.45873977100007]]]}}, {"id": "20", "type": "Feature", "properties": {"uc": "DHOK ALI AKBAR"}, "geometry": {"type": "Polygon", "coordinates": [[[73.09145376600003, 33.660339771000054], [73.08405376600007, 33.65623977100006], [73.09815376600005, 33.638639771000044], [73.10285376600007, 33.64003977100003], [73.10665376600008, 33.635239771000045], [73.09655376600006, 33.630339771000024], [73.09375376600008, 33.62773977100005], [73.09125376600008, 33.624139771000046], [73.08705376600005, 33.62443977100003], [73.08265376600008, 33.64423977100006], [73.08305376600003, 33.648639771000035], [73.08035376600003, 33.654139771000075], [73.07395376600005, 33.65043977100004], [73.07105376600003, 33.65533977100006], [73.08795376600006, 33.664039771000034], [73.09145376600003, 33.660339771000054]]]}}, {"id": "21", "type": "Feature", "properties": {"uc": "DHOK BABU IRFAN"}, "geometry": {"type": "Polygon", "coordinates": [[[73.05915376600007, 33.59883977100003], [73.05345376600008, 33.595939771000076], [73.05185376600008, 33.60253977100007], [73.05625376600005, 33.60453977100008], [73.05915376600007, 33.59883977100003]]]}}, {"id": "22", "type": "Feature", "properties": {"uc": "DHOK DALAL"}, "geometry": {"type": "Polygon", "coordinates": [[[73.07395376600005, 33.65043977100004], [73.06695376600004, 33.644939771000054], [73.06245376600003, 33.650739771000076], [73.07105376600003, 33.65533977100006], [73.07395376600005, 33.65043977100004]]]}}, {"id": "23", "type": "Feature", "properties": {"uc": "DHOK FARMAN ALI"}, "geometry": {"type": "Polygon", "coordinates": [[[73.11355376600005, 33.63163977100004], [73.10185376600003, 33.62513977100008], [73.09375376600008, 33.62773977100005], [73.09655376600006, 33.630339771000024], [73.10665376600008, 33.635239771000045], [73.10285376600007, 33.64003977100003], [73.10635376600004, 33.64103977100007], [73.11355376600005, 33.63163977100004]]]}}, {"id": "24", "type": "Feature", "properties": {"uc": "DHOK HASSU(NORTH)"}, "geometry": {"type": "Polygon", "coordinates": [[[73.04385376600004, 33.59343977100008], [73.04095376600003, 33.59453977100003], [73.03835376600006, 33.59233977100007], [73.03535376600007, 33.59623977100006], [73.03865376600004, 33.596139771000026], [73.03795376600004, 33.59853977100005], [73.04265376600006, 33.59883977100003], [73.04385376600004, 33.59343977100008]]]}}, {"id": "25", "type": "Feature", "properties": {"uc": "DHOK HASSU(SOUTH)"}, "geometry": {"type": "Polygon", "coordinates": [[[73.04545376600004, 33.600439771000026], [73.04265376600006, 33.59883977100003], [73.03795376600004, 33.59853977100005], [73.03705376600004, 33.60113977100008], [73.04375376600007, 33.604439771000045], [73.04545376600004, 33.600439771000026]]]}}, {"id": "26", "type": "Feature", "properties": {"uc": "DHOK HUKAM DAD"}, "geometry": {"type": "Polygon", "coordinates": [[[73.07925376600008, 33.600439771000026], [73.07275376600006, 33.59903977100004], [73.06355376600004, 33.59913977100007], [73.06505376600006, 33.60193977100005], [73.07735376600004, 33.60403977100003], [73.07875376600003, 33.60253977100007], [73.07925376600008, 33.600439771000026]]]}}, {"id": "27", "type": "Feature", "properties": {"uc": "DHOK KALA KHAN"}, "geometry": {"type": "MultiPolygon", "coordinates": [[[[73.05945376600005, 33.60623977100005], [73.05675376600004, 33.61343977100006], [73.06035376600005, 33.61463977100004], [73.06305376600005, 33.60803977100005], [73.05945376600005, 33.60623977100005]]], [[[73.09375376600008, 33.65763977100005], [73.08995376600006, 33.64893977100007], [73.08405376600007, 33.65623977100006], [73.09145376600003, 33.660339771000054], [73.09375376600008, 33.65763977100005]]]]}}, {"id": "28", "type": "Feature", "properties": {"uc": "DHOK KASHMIRIAN"}, "geometry": {"type": "Polygon", "coordinates": [[[73.06505376600006, 33.60193977100005], [73.06355376600004, 33.59913977100007], [73.05945376600005, 33.60623977100005], [73.06305376600005, 33.60803977100005], [73.06505376600006, 33.60193977100005]]]}}, {"id": "29", "type": "Feature", "properties": {"uc": "DHOK KHABBA"}, "geometry": {"type": "Polygon", "coordinates": [[[73.12365376600007, 33.61863977100006], [73.11795376600008, 33.616139771000064], [73.11265376600005, 33.62113977100006], [73.10185376600003, 33.62513977100008], [73.11355376600005, 33.63163977100004], [73.12365376600007, 33.61863977100006]]]}}, {"id": "30", "type": "Feature", "properties": {"uc": "DHOK MANGTAL"}, "geometry": {"type": "Polygon", "coordinates": [[[73.04675376600005, 33.59603977100005], [73.04385376600004, 33.59343977100008], [73.04265376600006, 33.59883977100003], [73.04545376600004, 33.600439771000026], [73.04675376600005, 33.59603977100005]]]}}, {"id": "31", "type": "Feature", "properties": {"uc": "DHOK MUNSHI KHAN"}, "geometry": {"type": "Polygon", "coordinates": [[[73.12805376600005, 33.59833977100004], [73.13485376600005, 33.58653977100005], [73.12635376600008, 33.58403977100005], [73.11795376600008, 33.579939771000056], [73.11285376600006, 33.58523977100003], [73.11185376600008, 33.587339771000075], [73.10995376600005, 33.58833977100005], [73.10845376600008, 33.59143977100007], [73.10875376600006, 33.599339771000075], [73.11745376600004, 33.59943977100005], [73.12805376600005, 33.59833977100004]]]}}, {"id": "32", "type": "Feature", "properties": {"uc": "DHOK NAJJU"}, "geometry": {"type": "Polygon", "coordinates": [[[73.04175376600006, 33.610439771000074], [73.04375376600007, 33.604439771000045], [73.04025376600003, 33.60233977100006], [73.03865376600004, 33.608139771000026], [73.04175376600006, 33.610439771000074]]]}}, {"id": "33", "type": "Feature", "properties": {"uc": "DHOK RATTA"}, "geometry": {"type": "Polygon", "coordinates": [[[73.03705376600004, 33.60113977100008], [73.03865376600004, 33.596139771000026], [73.03535376600007, 33.59623977100006], [73.03225376600005, 33.59853977100005], [73.03705376600004, 33.60113977100008]]]}}, {"id": "34", "type": "Feature", "properties": {"uc": "Dhaman Syedan"}, "geometry": {"type": "Polygon", "coordinates": [[[73.07095376600006, 33.57403977100006], [73.07155376600008, 33.569339771000045], [73.06765376600003, 33.55943977100003], [73.06605376600004, 33.55763977100003], [73.06495376600003, 33.55083977100003], [73.06645376600005, 33.54013977100004], [73.06785376600004, 33.53583977100004], [73.07015376600003, 33.532739771000024], [73.07275376600006, 33.530839771000046], [73.07745376600008, 33.52983977100007], [73.08575376600004, 33.53073977100007], [73.08705376600005, 33.52683977100003], [73.08795376600006, 33.52103977100006], [73.09035376600008, 33.515939771000035], [73.09315376600006, 33.51183977100004], [73.09825376600008, 33.50033977100003], [73.10075376600008, 33.489739771000075], [73.10045376600004, 33.48643977100005], [73.09445376600007, 33.477139771000054], [73.09445376600007, 33.47363977100002], [73.09585376600006, 33.46953977100003], [73.09515376600007, 33.46593977100002], [73.08905376600006, 33.45943977100006], [73.08435376600005, 33.45583977100006], [73.08495376600007, 33.45043977100005], [73.08445376600008, 33.44643977100003], [73.07435376600006, 33.439439771000025], [73.06615376600007, 33.44683977100004], [73.06555376600005, 33.44983977100003], [73.06395376600005, 33.45273977100004], [73.06125376600005, 33.45533977100007], [73.05555376600006, 33.45873977100007], [73.05765376600004, 33.46243977100005], [73.06135376600008, 33.46483977100007], [73.05235376600007, 33.47533977100005], [73.04445376600006, 33.480039771000065], [73.04725376600004, 33.48113977100007], [73.04945376600006, 33.482939771000076], [73.04785376600006, 33.48663977100006], [73.03575376600008, 33.49753977100005], [73.03385376600005, 33.50003977100005], [73.03015376600007, 33.51073977100003], [73.03355376600007, 33.51443977100007], [73.04565376600004, 33.52333977100005], [73.04525376600003, 33.525939771000026], [73.04075376600008, 33.53413977100007], [73.04395376600007, 33.538239771000065], [73.04965376600006, 33.54243977100003], [73.05005376600008, 33.56063977100007], [73.05265376600005, 33.565639771000065], [73.05635376600003, 33.566439771000034], [73.05795376600008, 33.56833977100007], [73.05675376600004, 33.570739771000035], [73.05885376600008, 33.57493977100006], [73.06545376600008, 33.57603977100007], [73.07095376600006, 33.57403977100006]]]}}, {"id": "35", "type": "Feature", "properties": {"uc": "Dhamial"}, "geometry": {"type": "Polygon", "coordinates": [[[73.03235376600003, 33.57773977100004], [73.03535376600007, 33.57603977100007], [73.04045376600004, 33.576139771000044], [73.04345376600008, 33.575339771000074], [73.05265376600005, 33.565639771000065], [73.05005376600008, 33.56063977100007], [73.04965376600006, 33.54243977100003], [73.04395376600007, 33.538239771000065], [73.04075376600008, 33.53413977100007], [73.04525376600003, 33.525939771000026], [73.04565376600004, 33.52333977100005], [73.03355376600007, 33.51443977100007], [73.03015376600007, 33.51073977100003], [73.03385376600005, 33.50003977100005], [73.03575376600008, 33.49753977100005], [73.04785376600006, 33.48663977100006], [73.04945376600006, 33.482939771000076], [73.04725376600004, 33.48113977100007], [73.04445376600006, 33.480039771000065], [73.04195376600006, 33.48063977100003], [73.03975376600005, 33.48013977100004], [73.03575376600008, 33.483139771000026], [73.01915376600004, 33.487739771000065], [73.01805376600004, 33.49133977100007], [73.01755376600005, 33.497439771000074], [73.01345376600005, 33.50583977100007], [73.01025376600006, 33.50953977100005], [72.99975376600008, 33.52463977100007], [72.99815376600003, 33.531439771000066], [72.99845376600007, 33.536839771000075], [72.99755376600007, 33.539039771000034], [72.99465376600006, 33.54003977100007], [72.99675376600004, 33.54173977100004], [73.00015376600004, 33.54663977100006], [72.99485376600006, 33.552439771000024], [72.99315376600003, 33.56003977100005], [72.99475376600003, 33.56143977100004], [73.01105376600003, 33.563039771000035], [73.01315376600007, 33.569339771000045], [73.01875376600003, 33.571339771000055], [73.02935376600004, 33.57803977100008], [73.03235376600003, 33.57773977100004]]]}}, {"id": "36", "type": "Feature", "properties": {"uc": "Dhok Ratta"}, "geometry": {"type": "Polygon", "coordinates": [[[73.05085376600005, 33.61773977100006], [73.05385376600003, 33.610439771000074], [73.04935376600008, 33.609239771000034], [73.04565376600004, 33.60953977100007], [73.04375376600007, 33.615539771000044], [73.05085376600005, 33.61773977100006]]]}}, {"id": "37", "type": "Feature", "properties": {"uc": "Dhoke Chiragh Din"}, "geometry": {"type": "Polygon", "coordinates": [[[73.08015376600008, 33.596739771000045], [73.07315376600008, 33.59483977100007], [73.06265376600004, 33.59433977100008], [73.06355376600004, 33.59913977100007], [73.07275376600006, 33.59903977100004], [73.07925376600008, 33.600439771000026], [73.08015376600008, 33.596739771000045]]]}}, {"id": "38", "type": "Feature", "properties": {"uc": "Dhoke Mangtal"}, "geometry": {"type": "Polygon", "coordinates": [[[73.06695376600004, 33.644939771000054], [73.06055376600006, 33.636139771000046], [73.05795376600008, 33.62763977100008], [73.05515376600005, 33.625539771000035], [73.05185376600008, 33.62433977100005], [73.04615376600003, 33.61963977100004], [73.04315376600005, 33.61803977100004], [73.03995376600005, 33.618339771000024], [73.03495376600006, 33.61593977100006], [73.03185376600004, 33.615839771000026], [73.02855376600007, 33.61463977100004], [73.02475376600006, 33.61113977100007], [73.02175376600007, 33.602939771000024], [73.01995376600007, 33.60093977100007], [73.01325376600005, 33.597239771000034], [73.00875376600004, 33.59353977100005], [72.99835376600004, 33.59433977100008], [72.99435376600007, 33.59283977100006], [72.99605376600005, 33.59033977100006], [72.99575376600006, 33.583339771000055], [72.99475376600003, 33.57863977100004], [73.00015376600004, 33.573039771000026], [72.99775376600007, 33.57083977100007], [72.99415376600007, 33.569839771000034], [72.98495376600005, 33.569039771000064], [72.97915376600008, 33.56893977100003], [72.97615376600004, 33.56963977100003], [72.97925376600006, 33.572839771000076], [72.98035376600006, 33.57603977100007], [72.97995376600005, 33.581939771000066], [72.97335376600006, 33.58513977100006], [72.96935376600004, 33.58633977100004], [72.96255376600004, 33.594439771000054], [72.95745376600007, 33.595339771000056], [72.98595376600008, 33.610439771000074], [72.97745376600005, 33.621339771000066], [72.97465376600007, 33.62343977100005], [72.96695376600007, 33.62703977100006], [72.96775376600004, 33.629839771000036], [72.96935376600004, 33.63133977100006], [72.97515376600006, 33.627539771000045], [72.98315376600004, 33.63083977100007], [72.98805376600006, 33.633839771000055], [72.99015376600005, 33.63223977100006], [73.00135376600008, 33.61933977100006], [73.00455376600007, 33.62033977100003], [73.06245376600003, 33.650739771000076], [73.06695376600004, 33.644939771000054]]]}}, {"id": "39", "type": "Feature", "properties": {"uc": "FAUJI COLONY"}, "geometry": {"type": "MultiPolygon", "coordinates": [[[[73.04975376600004, 33.58283977100007], [73.04685376600008, 33.591039771000055], [73.05185376600008, 33.58463977100007], [73.04975376600004, 33.58283977100007]]], [[[73.04385376600004, 33.59343977100008], [73.04675376600005, 33.59603977100005], [73.04685376600008, 33.591039771000055], [73.04385376600004, 33.59343977100008]]]]}}, {"id": "40", "type": "Feature", "properties": {"uc": "GANGAL"}, "geometry": {"type": "Polygon", "coordinates": [[[73.13485376600005, 33.58653977100005], [73.14305376600004, 33.57203977100005], [73.13175376600003, 33.56583977100007], [73.11795376600008, 33.579939771000056], [73.12635376600008, 33.58403977100005], [73.13485376600005, 33.58653977100005]]]}}, {"id": "41", "type": "Feature", "properties": {"uc": "GANJ MANDI"}, "geometry": {"type": "Polygon", "coordinates": [[[73.08265376600008, 33.64423977100006], [73.07145376600005, 33.64363977100004], [73.06695376600004, 33.644939771000054], [73.07395376600005, 33.65043977100004], [73.08035376600003, 33.654139771000075], [73.08305376600003, 33.648639771000035], [73.08265376600008, 33.64423977100006]]]}}, {"id": "42", "type": "Feature", "properties": {"uc": "Gaggan"}, "geometry": {"type": "Polygon", "coordinates": [[[72.91285376600007, 33.31543977100006], [72.90605376600007, 33.31283977100003], [72.90245376600006, 33.312739771000054], [72.89405376600007, 33.31093977100005], [72.89135376600007, 33.30693977100003], [72.89195376600003, 33.303939771000046], [72.89435376600005, 33.30093977100006], [72.89465376600003, 33.29513977100004], [72.89315376600007, 33.292539771000065], [72.89065376600007, 33.29083977100004], [72.88975376600007, 33.28613977100002], [72.89025376600006, 33.28063977100004], [72.89545376600006, 33.274239771000055], [72.89615376600005, 33.26603977100007], [72.89585376600007, 33.25473977100006], [72.89395376600004, 33.251939771000025], [72.88835376600008, 33.25033977100003], [72.88445376600004, 33.24783977100003], [72.88065376600008, 33.24673977100008], [72.87915376600006, 33.250839771000074], [72.87705376600007, 33.253139771000065], [72.87555376600005, 33.25643977100003], [72.87245376600004, 33.259639771000025], [72.86785376600005, 33.26203977100005], [72.86555376600006, 33.264239771000064], [72.86355376600005, 33.268239771000026], [72.86065376600004, 33.267439771000056], [72.85805376600007, 33.268539771000064], [72.85485376600008, 33.27243977100005], [72.85095376600003, 33.28043977100003], [72.84175376600007, 33.27273977100003], [72.83455376600006, 33.268839771000046], [72.82815376600007, 33.28543977100003], [72.82525376600006, 33.284839771000065], [72.81935376600006, 33.28033977100006], [72.81515376600004, 33.278239771000074], [72.81265376600004, 33.27733977100007], [72.80945376600005, 33.277639771000054], [72.80855376600005, 33.28453977100003], [72.80695376600005, 33.289139771000066], [72.80645376600006, 33.29783977100004], [72.79745376600005, 33.308239771000046], [72.80435376600008, 33.31553977100003], [72.81145376600006, 33.319839771000034], [72.81655376600008, 33.318739771000025], [72.81885376600007, 33.319039771000064], [72.82505376600005, 33.315939771000046], [72.82915376600005, 33.317639771000074], [72.83225376600006, 33.319939771000065], [72.84015376600007, 33.329339771000036], [72.84155376600006, 33.32723977100005], [72.84225376600006, 33.32453977100005], [72.84465376600008, 33.33173977100006], [72.84335376600006, 33.33403977100005], [72.84125376600008, 33.341639771000075], [72.83905376600006, 33.34223977100004], [72.83935376600004, 33.34423977100005], [72.86045376600003, 33.34753977100007], [72.86655376600004, 33.35033977100005], [72.86625376600006, 33.34623977100006], [72.86955376600008, 33.34713977100006], [72.87765376600004, 33.353839771000025], [72.87715376600005, 33.351039771000046], [72.87965376600005, 33.339539771000034], [72.87895376600005, 33.33033977100007], [72.88775376600006, 33.32823977100003], [72.89175376600008, 33.32943977100007], [72.89555376600003, 33.329339771000036], [72.90245376600006, 33.32713977100008], [72.90915376600003, 33.31883977100006], [72.91285376600007, 33.31543977100006]]]}}, {"id": "43", "type": "Feature", "properties": {"uc": "Ganj Mandi"}, "geometry": {"type": "Polygon", "coordinates": [[[73.05675376600004, 33.61343977100006], [73.05335376600004, 33.61253977100006], [73.05225376600004, 33.61433977100006], [73.05545376600008, 33.616439771000046], [73.05675376600004, 33.61343977100006]]]}}, {"id": "44", "type": "Feature", "properties": {"uc": "Gawal Mandi"}, "geometry": {"type": "Polygon", "coordinates": [[[73.06355376600004, 33.59913977100007], [73.05915376600007, 33.59883977100003], [73.05625376600005, 33.60453977100008], [73.05945376600005, 33.60623977100005], [73.06355376600004, 33.59913977100007]]]}}, {"id": "45", "type": "Feature", "properties": {"uc": "Gulistan Colony"}, "geometry": {"type": "Polygon", "coordinates": [[[73.09545376600005, 33.57753977100003], [73.09805376600008, 33.57913977100003], [73.09915376600003, 33.58173977100006], [73.11065376600004, 33.56683977100005], [73.11825376600007, 33.558839771000066], [73.09135376600005, 33.544739771000025], [73.08805376600003, 33.541939771000045], [73.09275376600004, 33.53973977100003], [73.08795376600006, 33.535339771000054], [73.08365376600005, 33.53953977100008], [73.08045376600006, 33.54383977100008], [73.07805376600004, 33.55033977100004], [73.07915376600005, 33.563639771000055], [73.07405376600008, 33.566539771000066], [73.07155376600008, 33.569339771000045], [73.07095376600006, 33.57403977100006], [73.07255376600006, 33.57883977100005], [73.07755376600005, 33.582739771000035], [73.08265376600008, 33.57803977100008], [73.08675376600007, 33.577039771000045], [73.08945376600008, 33.57813977100005], [73.09545376600005, 33.57753977100003]]]}}, {"id": "46", "type": "Feature", "properties": {"uc": "HAZARA COLONY"}, "geometry": {"type": "Polygon", "coordinates": [[[73.03705376600004, 33.60113977100008], [73.03225376600005, 33.59853977100005], [73.03195376600007, 33.601539771000034], [73.03255376600004, 33.60343977100007], [73.03605376600007, 33.604139771000064], [73.03705376600004, 33.60113977100008]]]}}, {"id": "47", "type": "Feature", "properties": {"uc": "Jhanda Chichi"}, "geometry": {"type": "Polygon", "coordinates": [[[73.09055376600008, 33.59113977100003], [73.08205376600006, 33.58853977100006], [73.07515376600003, 33.58723977100004], [73.07255376600006, 33.58683977100003], [73.06785376600004, 33.587539771000024], [73.06695376600004, 33.58013977100006], [73.06545376600008, 33.57603977100007], [73.05885376600008, 33.57493977100006], [73.05675376600004, 33.570739771000035], [73.05395376600006, 33.57313977100006], [73.05065376600004, 33.57393977100003], [73.04965376600006, 33.57603977100007], [73.04965376600006, 33.578439771000035], [73.04655376600005, 33.579939771000056], [73.06265376600004, 33.59433977100008], [73.07315376600008, 33.59483977100007], [73.08735376600004, 33.59883977100003], [73.09055376600008, 33.59113977100003]]]}}, {"id": "48", "type": "Feature", "properties": {"uc": "KARTARPURA"}, "geometry": {"type": "Polygon", "coordinates": [[[73.09235376600003, 33.603839771000025], [73.10165376600008, 33.58793977100004], [73.09805376600008, 33.57913977100003], [73.09545376600005, 33.57753977100003], [73.09295376600005, 33.58543977100004], [73.08605376600008, 33.60183977100007], [73.08965376600008, 33.60253977100007], [73.09235376600003, 33.603839771000025]]]}}, {"id": "49", "type": "Feature", "properties": {"uc": "KHANA DAK"}, "geometry": {"type": "Polygon", "coordinates": [[[73.03535376600007, 33.59623977100006], [73.03835376600006, 33.59233977100007], [73.04095376600003, 33.59453977100003], [73.04385376600004, 33.59343977100008], [73.04255376600008, 33.588239771000076], [73.04475376600004, 33.586139771000035], [73.04525376600003, 33.58263977100006], [73.04655376600005, 33.579939771000056], [73.04965376600006, 33.578439771000035], [73.04965376600006, 33.57603977100007], [73.05065376600004, 33.57393977100003], [73.05395376600006, 33.57313977100006], [73.05675376600004, 33.570739771000035], [73.05795376600008, 33.56833977100007], [73.05635376600003, 33.566439771000034], [73.05265376600005, 33.565639771000065], [73.04345376600008, 33.575339771000074], [73.04045376600004, 33.576139771000044], [73.03535376600007, 33.57603977100007], [73.03235376600003, 33.57773977100004], [73.03435376600004, 33.58343977100003], [73.03415376600003, 33.589639771000066], [73.03015376600007, 33.59263977100005], [73.03075376600003, 33.595939771000076], [73.03225376600005, 33.59853977100005], [73.03535376600007, 33.59623977100006]]]}}, {"id": "50", "type": "Feature", "properties": {"uc": "KHURRAM COLONY"}, "geometry": {"type": "Polygon", "coordinates": [[[73.07515376600003, 33.58723977100004], [73.07755376600005, 33.582739771000035], [73.07255376600006, 33.57883977100005], [73.07095376600006, 33.57403977100006], [73.06545376600008, 33.57603977100007], [73.06695376600004, 33.58013977100006], [73.06785376600004, 33.587539771000024], [73.07255376600006, 33.58683977100003], [73.07515376600003, 33.58723977100004]]]}}, {"id": "51", "type": "Feature", "properties": {"uc": "KHYBAN SIR SYED(NORTH)"}, "geometry": {"type": "Polygon", "coordinates": [[[73.04025376600003, 33.60233977100006], [73.03705376600004, 33.60113977100008], [73.03555376600008, 33.607239771000025], [73.03865376600004, 33.608139771000026], [73.04025376600003, 33.60233977100006]]]}}, {"id": "52", "type": "Feature", "properties": {"uc": "KHYBAN SIR SYED(SOUTH)"}, "geometry": {"type": "Polygon", "coordinates": [[[73.03865376600004, 33.608139771000026], [73.03555376600008, 33.607239771000025], [73.03405376600006, 33.60993977100003], [73.03735376600008, 33.61053977100005], [73.03865376600004, 33.608139771000026]]]}}, {"id": "53", "type": "Feature", "properties": {"uc": "KOTHA KALAN"}, "geometry": {"type": "Polygon", "coordinates": [[[73.11285376600006, 33.58523977100003], [73.13175376600003, 33.56583977100007], [73.11825376600007, 33.558839771000066], [73.11065376600004, 33.56683977100005], [73.09915376600003, 33.58173977100006], [73.10355376600006, 33.59213977100006], [73.10835376600005, 33.59483977100007], [73.10845376600008, 33.59143977100007], [73.10995376600005, 33.58833977100005], [73.11185376600008, 33.587339771000075], [73.11285376600006, 33.58523977100003]]]}}, {"id": "54", "type": "Feature", "properties": {"uc": "Khurram Colony"}, "geometry": {"type": "Polygon", "coordinates": [[[73.09375376600008, 33.62773977100005], [73.11265376600005, 33.62113977100006], [73.11605376600005, 33.618339771000024], [73.12125376600005, 33.61143977100005], [73.12695376600004, 33.60633977100008], [73.12795376600008, 33.602439771000036], [73.12805376600005, 33.59833977100004], [73.11745376600004, 33.59943977100005], [73.10875376600006, 33.599339771000075], [73.10925376600005, 33.60283977100005], [73.10815376600004, 33.607239771000025], [73.10635376600004, 33.610639771000024], [73.09405376600006, 33.61743977100008], [73.09095376600004, 33.620439771000065], [73.09125376600008, 33.624139771000046], [73.09375376600008, 33.62773977100005]]]}}, {"id": "55", "type": "Feature", "properties": {"uc": "Kolian Hamid"}, "geometry": {"type": "Polygon", "coordinates": [[[72.83905376600006, 33.34223977100004], [72.84125376600008, 33.341639771000075], [72.84335376600006, 33.33403977100005], [72.84465376600008, 33.33173977100006], [72.84225376600006, 33.32453977100005], [72.84155376600006, 33.32723977100005], [72.84015376600007, 33.329339771000036], [72.83225376600006, 33.319939771000065], [72.82915376600005, 33.317639771000074], [72.82505376600005, 33.315939771000046], [72.81885376600007, 33.319039771000064], [72.81655376600008, 33.318739771000025], [72.81145376600006, 33.319839771000034], [72.80435376600008, 33.31553977100003], [72.78765376600006, 33.29833977100003], [72.77945376600007, 33.29723977100008], [72.77085376600007, 33.298139771000024], [72.77105376600008, 33.302239771000075], [72.76955376600006, 33.30603977100003], [72.76065376600008, 33.31493977100007], [72.75555376600005, 33.31713977100003], [72.75445376600004, 33.31313977100007], [72.74645376600006, 33.30473977100007], [72.73165376600008, 33.293939771000055], [72.72885376600004, 33.290539771000056], [72.72205376600004, 33.28753977100007], [72.72235376600008, 33.282739771000024], [72.72125376600007, 33.27493977100005], [72.71955376600005, 33.27243977100005], [72.70585376600008, 33.26343977100004], [72.69785376600004, 33.25553977100003], [72.69645376600005, 33.247739771000056], [72.69725376600007, 33.23753977100006], [72.68455376600008, 33.23823977100005], [72.67395376600007, 33.24503977100005], [72.67095376600008, 33.248539771000026], [72.66685376600003, 33.25103977100002], [72.66465376600007, 33.25363977100005], [72.66335376600006, 33.25713977100003], [72.65825376600003, 33.26273977100004], [72.65995376600006, 33.26483977100003], [72.66115376600004, 33.26773977100004], [72.66165376600003, 33.27193977100006], [72.66265376600006, 33.274239771000055], [72.67315376600004, 33.277639771000054], [72.67965376600006, 33.27463977100007], [72.68635376600008, 33.27523977100003], [72.68845376600007, 33.276539771000046], [72.68935376600007, 33.28203977100003], [72.68865376600007, 33.28503977100007], [72.67945376600005, 33.29493977100003], [72.67875376600006, 33.30343977100006], [72.67985376600006, 33.30613977100006], [72.68525376600007, 33.31003977100005], [72.68765376600004, 33.31293977100006], [72.69595376600006, 33.33203977100004], [72.70355376600008, 33.33863977100003], [72.70565376600007, 33.34133977100004], [72.70555376600004, 33.34763977100005], [72.70725376600006, 33.350239771000076], [72.71795376600005, 33.360439771000074], [72.71765376600007, 33.364139771000055], [72.72365376600004, 33.37713977100003], [72.72825376600008, 33.382339771000034], [72.73825376600007, 33.388139771000056], [72.74475376600003, 33.39043977100005], [72.74855376600004, 33.384639771000025], [72.74955376600008, 33.379539771000054], [72.74895376600006, 33.37433977100005], [72.74555376600006, 33.365539771000044], [72.75245376600003, 33.36393977100005], [72.76095376600006, 33.35863977100007], [72.76945376600008, 33.35863977100007], [72.77465376600003, 33.35943977100004], [72.77795376600005, 33.358739771000046], [72.78055376600008, 33.357039771000075], [72.78255376600004, 33.343339771000046], [72.78925376600006, 33.343339771000046], [72.79195376600006, 33.34463977100006], [72.80655376600004, 33.34773977100008], [72.81085376600004, 33.34943977100005], [72.81465376600005, 33.35223977100003], [72.82555376600004, 33.33713977100007], [72.83705376600005, 33.340139771000054], [72.83905376600006, 33.34223977100004]]]}}, {"id": "56", "type": "Feature", "properties": {"uc": "LAKKHAN"}, "geometry": {"type": "Polygon", "coordinates": [[[73.03235376600003, 33.57773977100004], [73.02935376600004, 33.57803977100008], [73.01875376600003, 33.571339771000055], [73.01315376600007, 33.569339771000045], [73.00545376600007, 33.57263977100007], [73.00015376600004, 33.573039771000026], [72.99785376600005, 33.57573977100003], [73.00445376600004, 33.581939771000066], [73.01315376600007, 33.58573977100008], [73.01805376600004, 33.58713977100007], [73.03015376600007, 33.59263977100005], [73.03415376600003, 33.589639771000066], [73.03435376600004, 33.58343977100003], [73.03235376600003, 33.57773977100004]]]}}, {"id": "57", "type": "Feature", "properties": {"uc": "LOHDRA"}, "geometry": {"type": "Polygon", "coordinates": [[[73.24125376600006, 33.45933977100003], [73.23815376600004, 33.46363977100003], [73.23285376600006, 33.468339771000046], [73.22935376600003, 33.46633977100004], [73.22625376600007, 33.46143977100007], [73.21905376600006, 33.46083977100005], [73.21745376600006, 33.45843977100003], [73.21535376600008, 33.456939771000066], [73.21275376600005, 33.44943977100007], [73.21215376600003, 33.441539771000066], [73.20825376600004, 33.44223977100006], [73.20535376600003, 33.44853977100007], [73.20205376600006, 33.449239771000066], [73.20275376600006, 33.45213977100008], [73.20495376600007, 33.454339771000036], [73.20625376600003, 33.45753977100003], [73.20685376600005, 33.46103977100006], [73.20595376600005, 33.463139771000044], [73.19655376600008, 33.45953977100004], [73.18975376600008, 33.46133977100004], [73.18705376600008, 33.46293977100004], [73.18565376600003, 33.46473977100004], [73.18695376600004, 33.46783977100006], [73.18695376600004, 33.47343977100007], [73.19095376600006, 33.489439771000036], [73.19135376600008, 33.49363977100006], [73.19975376600007, 33.489739771000075], [73.22415376600003, 33.51533977100007], [73.22545376600004, 33.51153977100006], [73.23035376600006, 33.51003977100004], [73.23465376600006, 33.51073977100003], [73.23725376600004, 33.51213977100008], [73.23955376600003, 33.50673977100007], [73.24335376600004, 33.50153977100007], [73.24265376600005, 33.49943977100003], [73.24285376600005, 33.49563977100007], [73.24055376600006, 33.49243977100008], [73.23955376600003, 33.49563977100007], [73.24095376600008, 33.499739771000066], [73.23925376600005, 33.49983977100004], [73.23675376600005, 33.49783977100003], [73.23325376600008, 33.49233977100005], [73.23615376600003, 33.485639771000024], [73.23945376600005, 33.48583977100003], [73.24085376600004, 33.47623977100005], [73.24385376600003, 33.46793977100003], [73.24435376600007, 33.46333977100005], [73.24125376600006, 33.45933977100003]]]}}, {"id": "58", "type": "Feature", "properties": {"uc": "MILLAT COLONY"}, "geometry": {"type": "Polygon", "coordinates": [[[73.14165376600005, 33.59513977100005], [73.13725376600007, 33.593939771000066], [73.14315376600007, 33.58483977100008], [73.13715376600004, 33.582439771000054], [73.12805376600005, 33.59833977100004], [73.12795376600008, 33.602439771000036], [73.12695376600004, 33.60633977100008], [73.12125376600005, 33.61143977100005], [73.11795376600008, 33.616139771000064], [73.12365376600007, 33.61863977100006], [73.14165376600005, 33.59513977100005]]]}}, {"id": "59", "type": "Feature", "properties": {"uc": "MOHANPURA"}, "geometry": {"type": "Polygon", "coordinates": [[[73.07145376600005, 33.64363977100004], [73.06915376600006, 33.63943977100007], [73.06915376600006, 33.63193977100008], [73.05985376600006, 33.63343977100004], [73.06055376600006, 33.636139771000046], [73.06695376600004, 33.644939771000054], [73.07145376600005, 33.64363977100004]]]}}, {"id": "60", "type": "Feature", "properties": {"uc": "MORGAH"}, "geometry": {"type": "Polygon", "coordinates": [[[73.08795376600006, 33.535339771000054], [73.08575376600004, 33.53073977100007], [73.07745376600008, 33.52983977100007], [73.07275376600006, 33.530839771000046], [73.07015376600003, 33.532739771000024], [73.06785376600004, 33.53583977100004], [73.06645376600005, 33.54013977100004], [73.06495376600003, 33.55083977100003], [73.06605376600004, 33.55763977100003], [73.06765376600003, 33.55943977100003], [73.07155376600008, 33.569339771000045], [73.07405376600008, 33.566539771000066], [73.07915376600005, 33.563639771000055], [73.07805376600004, 33.55033977100004], [73.08045376600006, 33.54383977100008], [73.08365376600005, 33.53953977100008], [73.08795376600006, 33.535339771000054]]]}}, {"id": "61", "type": "Feature", "properties": {"uc": "MUHALLA AMAMBARA"}, "geometry": {"type": "Polygon", "coordinates": [[[73.08145376600004, 33.624739771000066], [73.09125376600008, 33.624139771000046], [73.09095376600004, 33.620439771000065], [73.08755376600004, 33.62013977100003], [73.08795376600006, 33.61763977100003], [73.08425376600007, 33.61633977100007], [73.08145376600004, 33.624739771000066]]]}}, {"id": "62", "type": "Feature", "properties": {"uc": "MUHALLA EIDGAH"}, "geometry": {"type": "Polygon", "coordinates": [[[73.05185376600008, 33.60253977100007], [73.04805376600007, 33.600439771000026], [73.04815376600004, 33.60333977100004], [73.05105376600005, 33.60493977100003], [73.05185376600008, 33.60253977100007]]]}}, {"id": "63", "type": "Feature", "properties": {"uc": "MUSLIM TOWN (WEST)"}, "geometry": {"type": "Polygon", "coordinates": [[[73.09545376600005, 33.57753977100003], [73.08945376600008, 33.57813977100005], [73.08675376600007, 33.577039771000045], [73.08265376600008, 33.57803977100008], [73.07755376600005, 33.582739771000035], [73.07515376600003, 33.58723977100004], [73.08205376600006, 33.58853977100006], [73.09055376600008, 33.59113977100003], [73.09545376600005, 33.57753977100003]]]}}, {"id": "64", "type": "Feature", "properties": {"uc": "Mohan Pura"}, "geometry": {"type": "Polygon", "coordinates": [[[73.05385376600003, 33.610439771000074], [73.05625376600005, 33.60453977100008], [73.05185376600008, 33.60253977100007], [73.04935376600008, 33.609239771000034], [73.05385376600003, 33.610439771000074]]]}}, {"id": "65", "type": "Feature", "properties": {"uc": "NEW KATARIAN"}, "geometry": {"type": "Polygon", "coordinates": [[[73.04565376600004, 33.60953977100007], [73.04265376600006, 33.607039771000075], [73.04175376600006, 33.610439771000074], [73.04465376600007, 33.61263977100003], [73.04565376600004, 33.60953977100007]]]}}, {"id": "66", "type": "Feature", "properties": {"uc": "PARIAL"}, "geometry": {"type": "Polygon", "coordinates": [[[72.83455376600006, 33.268839771000046], [72.82705376600006, 33.267139771000075], [72.82725376600007, 33.26433977100004], [72.83275376600005, 33.25493977100007], [72.83495376600007, 33.23753977100006], [72.83305376600003, 33.23473977100008], [72.82825376600005, 33.23123977100005], [72.82865376600006, 33.22183977100008], [72.82535376600003, 33.220039771000074], [72.82365376600006, 33.21613977100003], [72.82375376600004, 33.20653977100005], [72.82225376600007, 33.20273977100004], [72.81655376600008, 33.19763977100007], [72.80705376600008, 33.194039771000064], [72.80195376600005, 33.19133977100006], [72.80155376600004, 33.18893977100004], [72.80725376600003, 33.174339771000064], [72.81275376600007, 33.17013977100004], [72.81685376600007, 33.166039771000044], [72.82565376600007, 33.16483977100006], [72.82385376600007, 33.15793977100003], [72.81355376600004, 33.15933977100008], [72.80995376600004, 33.159239771000045], [72.80745376600004, 33.16093977100007], [72.80435376600008, 33.165539771000056], [72.79915376600007, 33.16703977100008], [72.79255376600008, 33.17023977100007], [72.78275376600004, 33.17683977100006], [72.77155376600007, 33.18303977100004], [72.76175376600008, 33.18993977100007], [72.75795376600007, 33.190339771000026], [72.75105376600004, 33.18933977100005], [72.74265376600005, 33.19163977100004], [72.72265376600006, 33.19523977100005], [72.71975376600005, 33.20243977100006], [72.71075376600004, 33.21063977100005], [72.70685376600005, 33.21333977100005], [72.70465376600004, 33.224339771000075], [72.70545376600006, 33.228639771000076], [72.71465376600008, 33.23953977100007], [72.71905376600006, 33.24373977100004], [72.72685376600003, 33.246839771000054], [72.73785376600006, 33.25303977100003], [72.74635376600008, 33.24753977100005], [72.75355376600004, 33.24693977100003], [72.75345376600006, 33.250839771000074], [72.75455376600007, 33.255139771000074], [72.75835376600008, 33.25383977100006], [72.76515376600008, 33.252839771000026], [72.76755376600005, 33.25303977100003], [72.77485376600004, 33.25853977100007], [72.77545376600006, 33.26093977100004], [72.78745376600006, 33.26703977100004], [72.79235376600008, 33.27063977100005], [72.80945376600005, 33.277639771000054], [72.81265376600004, 33.27733977100007], [72.81515376600004, 33.278239771000074], [72.81935376600006, 33.28033977100006], [72.82525376600006, 33.284839771000065], [72.82815376600007, 33.28543977100003], [72.83455376600006, 33.268839771000046]]]}}, {"id": "67", "type": "Feature", "properties": {"uc": "PINDORA"}, "geometry": {"type": "Polygon", "coordinates": [[[73.06265376600004, 33.59433977100008], [73.05685376600007, 33.58893977100007], [73.05345376600008, 33.595939771000076], [73.05915376600007, 33.59883977100003], [73.06355376600004, 33.59913977100007], [73.06265376600004, 33.59433977100008]]]}}, {"id": "68", "type": "Feature", "properties": {"uc": "PIR WADHI"}, "geometry": {"type": "Polygon", "coordinates": [[[73.04175376600006, 33.610439771000074], [73.03865376600004, 33.608139771000026], [73.03735376600008, 33.61053977100005], [73.03735376600008, 33.61343977100006], [73.04025376600003, 33.61423977100003], [73.04175376600006, 33.610439771000074]]]}}, {"id": "69", "type": "Feature", "properties": {"uc": "PURANA QILLA"}, "geometry": {"type": "Polygon", "coordinates": [[[73.10635376600004, 33.64103977100007], [73.09815376600005, 33.638639771000044], [73.09525376600004, 33.64223977100005], [73.09865376600004, 33.64513977100006], [73.09205376600005, 33.65333977100005], [73.09375376600008, 33.65763977100005], [73.10635376600004, 33.64103977100007]]]}}, {"id": "70", "type": "Feature", "properties": {"uc": "Purana Qila"}, "geometry": {"type": "Polygon", "coordinates": [[[73.06035376600005, 33.61463977100004], [73.05675376600004, 33.61343977100006], [73.05545376600008, 33.616439771000046], [73.05225376600004, 33.61433977100006], [73.04865376600003, 33.621839771000054], [73.05185376600008, 33.62433977100005], [73.05515376600005, 33.625539771000035], [73.06035376600005, 33.61463977100004]]]}}, {"id": "71", "type": "Feature", "properties": {"uc": "QAYYUMABAD"}, "geometry": {"type": "Polygon", "coordinates": [[[73.05945376600005, 33.60623977100005], [73.05625376600005, 33.60453977100008], [73.05545376600008, 33.607339771000056], [73.05885376600008, 33.60883977100008], [73.05945376600005, 33.60623977100005]]]}}, {"id": "72", "type": "Feature", "properties": {"uc": "RAIKA MAIRA"}, "geometry": {"type": "Polygon", "coordinates": [[[72.88065376600008, 33.24673977100008], [72.88655376600008, 33.235439771000074], [72.88965376600004, 33.232939771000076], [72.89675376600007, 33.23363977100007], [72.89995376600007, 33.23243977100003], [72.90265376600007, 33.23043977100008], [72.90615376600005, 33.23033977100005], [72.91205376600004, 33.22563977100003], [72.91625376600007, 33.22013977100005], [72.92065376600004, 33.21713977100006], [72.91505376600003, 33.21643977100007], [72.91085376600006, 33.217739771000026], [72.90975376600005, 33.220839771000044], [72.90695376600007, 33.22333977100004], [72.90275376600005, 33.22533977100005], [72.89975376600006, 33.224339771000075], [72.90155376600006, 33.21733977100007], [72.90065376600006, 33.213139771000044], [72.90095376600004, 33.209739771000045], [72.90315376600006, 33.20703977100004], [72.90575376600003, 33.19643977100003], [72.90985376600008, 33.19793977100005], [72.91275376600004, 33.19983977100003], [72.92065376600004, 33.19743977100006], [72.92065376600004, 33.192339771000036], [72.91495376600005, 33.17393977100005], [72.91655376600005, 33.16933977100007], [72.89755376600004, 33.16703977100008], [72.89155376600007, 33.165439771000024], [72.88815376600007, 33.16383977100003], [72.88215376600004, 33.162639771000045], [72.87605376600004, 33.16473977100003], [72.87045376600008, 33.16813977100003], [72.86535376600006, 33.16583977100004], [72.86055376600007, 33.165439771000024], [72.85605376600006, 33.164039771000034], [72.84825376600008, 33.16013977100005], [72.83545376600006, 33.16283977100005], [72.83005376600005, 33.166039771000044], [72.82565376600007, 33.16483977100006], [72.81685376600007, 33.166039771000044], [72.81275376600007, 33.17013977100004], [72.80725376600003, 33.174339771000064], [72.80155376600004, 33.18893977100004], [72.80195376600005, 33.19133977100006], [72.80705376600008, 33.194039771000064], [72.81655376600008, 33.19763977100007], [72.82225376600007, 33.20273977100004], [72.82375376600004, 33.20653977100005], [72.82365376600006, 33.21613977100003], [72.82535376600003, 33.220039771000074], [72.82865376600006, 33.22183977100008], [72.82825376600005, 33.23123977100005], [72.83305376600003, 33.23473977100008], [72.83495376600007, 33.23753977100006], [72.83275376600005, 33.25493977100007], [72.82725376600007, 33.26433977100004], [72.82705376600006, 33.267139771000075], [72.83455376600006, 33.268839771000046], [72.83875376600008, 33.27093977100003], [72.84175376600007, 33.27273977100003], [72.85095376600003, 33.28043977100003], [72.85485376600008, 33.27243977100005], [72.85805376600007, 33.268539771000064], [72.86065376600004, 33.267439771000056], [72.86355376600005, 33.268239771000026], [72.86555376600006, 33.264239771000064], [72.86785376600005, 33.26203977100005], [72.87245376600004, 33.259639771000025], [72.87555376600005, 33.25643977100003], [72.87705376600007, 33.253139771000065], [72.87915376600006, 33.250839771000074], [72.88065376600008, 33.24673977100008]]]}}, {"id": "73", "type": "Feature", "properties": {"uc": "RANIAL"}, "geometry": {"type": "Polygon", "coordinates": [[[73.01315376600007, 33.569339771000045], [73.01105376600003, 33.563039771000035], [72.99475376600003, 33.56143977100004], [72.99315376600003, 33.56003977100005], [72.99485376600006, 33.552439771000024], [73.00015376600004, 33.54663977100006], [72.99675376600004, 33.54173977100004], [72.99465376600006, 33.54003977100007], [72.99755376600007, 33.539039771000034], [72.99845376600007, 33.536839771000075], [72.99815376600003, 33.531439771000066], [72.98735376600007, 33.52263977100006], [72.98235376600007, 33.51973977100005], [72.97575376600008, 33.51763977100006], [72.97475376600005, 33.510839771000065], [72.97255376600003, 33.506239771000025], [72.96425376600007, 33.500839771000074], [72.95595376600005, 33.49173977100003], [72.94895376600005, 33.48863977100007], [72.94255376600006, 33.47833977100004], [72.93305376600006, 33.47303977100006], [72.92585376600005, 33.46673977100005], [72.92155376600005, 33.463739771000064], [72.91825376600008, 33.46243977100005], [72.91665376600008, 33.46703977100003], [72.91705376600004, 33.47203977100003], [72.91425376600006, 33.475239771000076], [72.91625376600007, 33.47893977100006], [72.91885376600004, 33.481439771000055], [72.91845376600008, 33.48413977100006], [72.92365376600003, 33.48403977100003], [72.92955376600008, 33.48643977100005], [72.92845376600008, 33.48793977100007], [72.92875376600006, 33.490839771000026], [72.92565376600004, 33.49643977100004], [72.92485376600007, 33.505139771000074], [72.92725376600004, 33.509639771000025], [72.92475376600004, 33.513139771000056], [72.91975376600004, 33.513939771000025], [72.91205376600004, 33.51673977100006], [72.90985376600008, 33.520239771000035], [72.90645376600008, 33.52383977100004], [72.90525376600004, 33.52963977100006], [72.91235376600008, 33.53463977100006], [72.92845376600008, 33.551639771000055], [72.93225376600003, 33.553339771000026], [72.93445376600005, 33.55633977100007], [72.93705376600008, 33.553039771000044], [72.93955376600007, 33.55133977100007], [72.94665376600005, 33.54913977100006], [72.94895376600005, 33.54743977100003], [72.95125376600004, 33.548239771000055], [72.95255376600005, 33.55343977100006], [72.95205376600006, 33.55763977100003], [72.95025376600006, 33.562139771000034], [72.95315376600007, 33.56323977100004], [72.95615376600006, 33.56623977100003], [72.96905376600006, 33.56673977100007], [72.97615376600004, 33.56963977100003], [72.97915376600008, 33.56893977100003], [72.99415376600007, 33.569839771000034], [72.99775376600007, 33.57083977100007], [73.00015376600004, 33.573039771000026], [73.00545376600007, 33.57263977100007], [73.01315376600007, 33.569339771000045]]]}}, {"id": "74", "type": "Feature", "properties": {"uc": "RATTA AMRAL"}, "geometry": {"type": "Polygon", "coordinates": [[[73.02325376600004, 33.607339771000056], [73.02475376600006, 33.61113977100007], [73.02855376600007, 33.61463977100004], [73.02975376600006, 33.61103977100004], [73.02665376600004, 33.608439771000064], [73.02325376600004, 33.607339771000056]]]}}, {"id": "75", "type": "Feature", "properties": {"uc": "RAWALPINDI CANTT-1"}, "geometry": {"type": "Polygon", "coordinates": [[[73.03735376600008, 33.61343977100006], [73.03735376600008, 33.61053977100005], [73.03405376600006, 33.60993977100003], [73.03555376600008, 33.607239771000025], [73.03605376600007, 33.604139771000064], [73.02735376600003, 33.602939771000024], [73.02175376600007, 33.602939771000024], [73.02325376600004, 33.607339771000056], [73.02665376600004, 33.608439771000064], [73.02975376600006, 33.61103977100004], [73.02855376600007, 33.61463977100004], [73.03185376600004, 33.615839771000026], [73.03305376600008, 33.61263977100003], [73.03735376600008, 33.61343977100006]]]}}, {"id": "76", "type": "Feature", "properties": {"uc": "RAWALPINDI CANTT-2"}, "geometry": {"type": "Polygon", "coordinates": [[[73.04315376600005, 33.61803977100004], [73.04465376600007, 33.61263977100003], [73.04175376600006, 33.610439771000074], [73.04025376600003, 33.61423977100003], [73.03305376600008, 33.61263977100003], [73.03185376600004, 33.615839771000026], [73.03495376600006, 33.61593977100006], [73.03995376600005, 33.618339771000024], [73.04315376600005, 33.61803977100004]]]}}, {"id": "77", "type": "Feature", "properties": {"uc": "RAWALPINDI CANTT-3"}, "geometry": {"type": "Polygon", "coordinates": [[[73.05185376600008, 33.60253977100007], [73.05345376600008, 33.595939771000076], [73.05685376600007, 33.58893977100007], [73.05185376600008, 33.58463977100007], [73.04685376600008, 33.591039771000055], [73.04675376600005, 33.59603977100005], [73.04545376600004, 33.600439771000026], [73.04815376600004, 33.60333977100004], [73.04805376600007, 33.600439771000026], [73.05185376600008, 33.60253977100007]]]}}, {"id": "78", "type": "Feature", "properties": {"uc": "RAWALPINDI CANTT-8"}, "geometry": {"type": "Polygon", "coordinates": [[[73.07935376600005, 33.630139771000074], [73.08425376600007, 33.61633977100007], [73.08795376600006, 33.61763977100003], [73.08755376600004, 33.62013977100003], [73.09095376600004, 33.620439771000065], [73.09405376600006, 33.61743977100008], [73.10635376600004, 33.610639771000024], [73.10815376600004, 33.607239771000025], [73.10165376600008, 33.60393977100006], [73.09395376600008, 33.60113977100008], [73.09235376600003, 33.603839771000025], [73.08965376600008, 33.60253977100007], [73.08605376600008, 33.60183977100007], [73.08065376600007, 33.611539771000025], [73.07575376600005, 33.63083977100007], [73.07935376600005, 33.630139771000074]]]}}, {"id": "79", "type": "Feature", "properties": {"uc": "RAWALPINDI CANTT-9"}, "geometry": {"type": "Polygon", "coordinates": [[[73.08705376600005, 33.62443977100003], [73.08145376600004, 33.624739771000066], [73.07935376600005, 33.630139771000074], [73.07575376600005, 33.63083977100007], [73.07705376600006, 33.62563977100007], [73.06315376600008, 33.62823977100004], [73.05895376600006, 33.630339771000024], [73.05985376600006, 33.63343977100004], [73.06915376600006, 33.63193977100008], [73.06915376600006, 33.63943977100007], [73.07145376600005, 33.64363977100004], [73.08265376600008, 33.64423977100006], [73.08705376600005, 33.62443977100003]]]}}, {"id": "80", "type": "Feature", "properties": {"uc": "Ratta Amral"}, "geometry": {"type": "Polygon", "coordinates": [[[73.04935376600008, 33.609239771000034], [73.04675376600005, 33.60623977100005], [73.04375376600007, 33.604439771000045], [73.04265376600006, 33.607039771000075], [73.04565376600004, 33.60953977100007], [73.04935376600008, 33.609239771000034]]]}}, {"id": "81", "type": "Feature", "properties": {"uc": "SAGRI KALAN"}, "geometry": {"type": "Polygon", "coordinates": [[[73.27795376600005, 33.48023977100007], [73.27815376600006, 33.47693977100005], [73.27595376600004, 33.470339771000056], [73.27055376600003, 33.46153977100005], [73.26935376600005, 33.458339771000055], [73.26175376600008, 33.449139771000034], [73.24765376600004, 33.42773977100006], [73.23865376600008, 33.42133977100008], [73.23465376600006, 33.416939771000045], [73.22835376600005, 33.415239771000074], [73.22215376600008, 33.41213977100006], [73.21955376600005, 33.41003977100007], [73.21755376600004, 33.41283977100005], [73.21715376600008, 33.416339771000025], [73.21775376600004, 33.42103977100004], [73.21275376600005, 33.42143977100005], [73.21615376600005, 33.42613977100007], [73.21295376600006, 33.43543977100006], [73.21335376600007, 33.438339771000074], [73.21215376600003, 33.441539771000066], [73.21275376600005, 33.44943977100007], [73.21535376600008, 33.456939771000066], [73.21745376600006, 33.45843977100003], [73.21905376600006, 33.46083977100005], [73.22625376600007, 33.46143977100007], [73.22935376600003, 33.46633977100004], [73.23285376600006, 33.468339771000046], [73.23815376600004, 33.46363977100003], [73.24305376600006, 33.45753977100003], [73.24965376600005, 33.46133977100004], [73.24915376600006, 33.470939771000076], [73.25275376600007, 33.48763977100003], [73.25525376600007, 33.486539771000025], [73.25815376600008, 33.48403977100003], [73.26175376600008, 33.48273977100007], [73.26565376600007, 33.48333977100003], [73.27795376600005, 33.48023977100007]]]}}, {"id": "82", "type": "Feature", "properties": {"uc": "SAIDPUR SCHEME"}, "geometry": {"type": "Polygon", "coordinates": [[[73.05105376600005, 33.60493977100003], [73.04815376600004, 33.60333977100004], [73.04545376600004, 33.600439771000026], [73.04375376600007, 33.604439771000045], [73.04675376600005, 33.60623977100005], [73.04935376600008, 33.609239771000034], [73.05105376600005, 33.60493977100003]]]}}, {"id": "83", "type": "Feature", "properties": {"uc": "SEHAL"}, "geometry": {"type": "Polygon", "coordinates": [[[72.89815376600006, 33.39173977100006], [72.89555376600003, 33.38303977100003], [72.89555376600003, 33.377839771000026], [72.89345376600005, 33.37513977100008], [72.88975376600007, 33.374139771000046], [72.88745376600008, 33.370439771000065], [72.88485376600005, 33.368439771000055], [72.88375376600004, 33.36523977100006], [72.87765376600004, 33.353839771000025], [72.86955376600008, 33.34713977100006], [72.86625376600006, 33.34623977100006], [72.86655376600004, 33.35033977100005], [72.86045376600003, 33.34753977100007], [72.83935376600004, 33.34423977100005], [72.83905376600006, 33.34223977100004], [72.83705376600005, 33.340139771000054], [72.82555376600004, 33.33713977100007], [72.81465376600005, 33.35223977100003], [72.81085376600004, 33.34943977100005], [72.80655376600004, 33.34773977100008], [72.79195376600006, 33.34463977100006], [72.78925376600006, 33.343339771000046], [72.78255376600004, 33.343339771000046], [72.78055376600008, 33.357039771000075], [72.77795376600005, 33.358739771000046], [72.77465376600003, 33.35943977100004], [72.76945376600008, 33.35863977100007], [72.76095376600006, 33.35863977100007], [72.75245376600003, 33.36393977100005], [72.74555376600006, 33.365539771000044], [72.74895376600006, 33.37433977100005], [72.74955376600008, 33.379539771000054], [72.74855376600004, 33.384639771000025], [72.74475376600003, 33.39043977100005], [72.75035376600005, 33.392139771000075], [72.75655376600008, 33.404939771000045], [72.76015376600003, 33.39973977100004], [72.76325376600005, 33.39713977100007], [72.76785376600003, 33.39713977100007], [72.77255376600004, 33.39933977100003], [72.76915376600004, 33.41363977100008], [72.76975376600006, 33.419539771000075], [72.77415376600004, 33.42823977100005], [72.77415376600004, 33.43363977100006], [72.77265376600008, 33.440039771000045], [72.77425376600007, 33.44443977100008], [72.77675376600007, 33.44743977100006], [72.78285376600007, 33.450039771000036], [72.78655376600005, 33.447139771000025], [72.78845376600003, 33.44363977100005], [72.79705376600003, 33.436339771000064], [72.79845376600008, 33.43343977100005], [72.79955376600003, 33.43043977100007], [72.79695376600006, 33.42163977100006], [72.79225376600004, 33.41673977100004], [72.79815376600004, 33.405839771000046], [72.80115376600008, 33.39593977100003], [72.80285376600006, 33.392939771000044], [72.80955376600008, 33.385339771000076], [72.81795376600007, 33.38643977100003], [72.82285376600004, 33.389539771000045], [72.82585376600008, 33.388939771000025], [72.82885376600007, 33.38653977100006], [72.83115376600006, 33.38333977100007], [72.83815376600006, 33.38733977100003], [72.84985376600008, 33.388639771000044], [72.85445376600006, 33.39003977100003], [72.85835376600005, 33.38733977100003], [72.86075376600007, 33.383239771000035], [72.86365376600008, 33.38333977100007], [72.87125376600005, 33.38143977100003], [72.87385376600008, 33.381839771000045], [72.87555376600005, 33.38393977100003], [72.87755376600006, 33.39023977100004], [72.88355376600003, 33.39053977100008], [72.88725376600007, 33.38993977100006], [72.89815376600006, 33.39173977100006]]]}}, {"id": "84", "type": "Feature", "properties": {"uc": "SHAH CHAN CHARAGH"}, "geometry": {"type": "Polygon", "coordinates": [[[73.09525376600004, 33.64223977100005], [73.08995376600006, 33.64893977100007], [73.09205376600005, 33.65333977100005], [73.09865376600004, 33.64513977100006], [73.09525376600004, 33.64223977100005]]]}}, {"id": "85", "type": "Feature", "properties": {"uc": "TAKHT PARI"}, "geometry": {"type": "Polygon", "coordinates": [[[73.19135376600008, 33.49363977100006], [73.18955376600007, 33.48353977100004], [73.18655376600003, 33.48523977100007], [73.18275376600008, 33.486339771000075], [73.17615376600008, 33.48583977100003], [73.16475376600005, 33.47703977100008], [73.16115376600004, 33.47303977100006], [73.16015376600006, 33.46933977100008], [73.16315376600005, 33.46583977100005], [73.16385376600005, 33.458839771000044], [73.16295376600004, 33.45563977100005], [73.15745376600006, 33.45393977100008], [73.15365376600005, 33.45413977100003], [73.14765376600008, 33.45233977100003], [73.14195376600003, 33.448039771000026], [73.14065376600007, 33.44603977100007], [73.14415376600004, 33.444339771000045], [73.14555376600003, 33.43983977100004], [73.14395376600004, 33.43623977100003], [73.14685376600005, 33.43343977100005], [73.14145376600004, 33.428639771000064], [73.14045376600006, 33.425239771000065], [73.13415376600005, 33.42253977100006], [73.12445376600004, 33.42243977100003], [73.12085376600004, 33.420639771000026], [73.11815376600003, 33.42083977100003], [73.11485376600007, 33.42273977100007], [73.11665376600007, 33.430939771000055], [73.11475376600004, 33.43253977100005], [73.11205376600003, 33.43333977100008], [73.10525376600003, 33.433739771000035], [73.10105376600006, 33.430939771000055], [73.09645376600008, 33.43123977100004], [73.09335376600006, 33.43423977100008], [73.09275376600004, 33.437239771000066], [73.09425376600007, 33.443439771000044], [73.08445376600008, 33.44643977100003], [73.08495376600007, 33.45043977100005], [73.08435376600005, 33.45583977100006], [73.08905376600006, 33.45943977100006], [73.09515376600007, 33.46593977100002], [73.09585376600006, 33.46953977100003], [73.09445376600007, 33.47363977100002], [73.09445376600007, 33.477139771000054], [73.10045376600004, 33.48643977100005], [73.10075376600008, 33.489739771000075], [73.09825376600008, 33.50033977100003], [73.09315376600006, 33.51183977100004], [73.09035376600008, 33.515939771000035], [73.08795376600006, 33.52103977100006], [73.08705376600005, 33.52683977100003], [73.08575376600004, 33.53073977100007], [73.08795376600006, 33.535339771000054], [73.09275376600004, 33.53973977100003], [73.19135376600008, 33.49363977100006]]]}}, {"id": "86", "type": "Feature", "properties": {"uc": "Waris Khan"}, "geometry": {"type": "Polygon", "coordinates": [[[73.07705376600006, 33.62563977100007], [73.08065376600007, 33.611539771000025], [73.07495376600008, 33.61093977100006], [73.07395376600005, 33.615539771000044], [73.06645376600005, 33.614739771000075], [73.07015376600003, 33.60313977100003], [73.06505376600006, 33.60193977100005], [73.06195376600004, 33.611239771000044], [73.05515376600005, 33.625539771000035], [73.05795376600008, 33.62763977100008], [73.05895376600006, 33.630339771000024], [73.06315376600008, 33.62823977100004], [73.07705376600006, 33.62563977100007]]]}}]}